X,Y,OBJECTID,SAP_EQUIPMENT,ITEM_DESCRIPTION,ITEM_TYPE,SAP_FUNCTIONAL_LOCATION,PARK_NUMBER,PARK_NAME,SUBURB,POWER_TYPE,NUMBER_OF_PLATES,LONG,LAT
507991.5737,6977807.984,1,200479102,BBQ - ELECTRIC SINGLE,BARBEQUE,B-RE-1866-N002,D0287,SHEPHERD PLACE PARK,SHORNCLIFFE,MAINS POWER,1,153.0807798,-27.32280268
496512.3856,6943885.454,2,100293721,BBQ - ELECTRIC DOUBLE,BARBEQUE,B-RE-0169-N003,D2007,CASCADE DRIVE PARK (NO.20),FOREST LAKE,MAINS POWER,2,152.9646491,-27.62907349
500941.289,6975746.207,3,200488746,BBQ - ELECTRIC SINGLE,BARBEQUE,B-RE-0456-N001,D1576,PAT RAFTER PARK,CARSELDINE,MAINS POWER,1,153.0095163,-27.34143977
509630.0579,6946484.337,4,200482197,BBQ - ELECTRIC SINGLE,BARBEQUE,B-RE-0394-N001,D1551,SVOBODA PARK,KURABY,MAINS POWER,1,153.0975905,-27.6055815
504174.0685,6965054.257,5,200482213,BBQ - ELECTRIC SINGLE,BARBEQUE,B-RE-1978-N006,D0170,YOWOGGERA  PARK,ALBION,MAINS POWER,1,153.0422357,-27.43796162
498042.8982,6968971.364,6,200482228,BBQ - ELECTRIC SINGLE,BARBEQUE,B-RE-1716-N013,D0208,TERALBA PARK,EVERTON PARK,MAINS POWER,1,152.9802032,-27.40260276
495443.542,6964334.858,7,100268997,BBQ - ELECTRIC DOUBLE,BARBEQUE,B-RE-1738-N004,D0160,WALTON BRIDGE RESERVE,THE GAP,MAINS POWER,2,152.9538923,-27.44445514
498776.9424,6953798.854,8,200472641,BBQ - ELECTRIC DOUBLE,BARBEQUE,B-RE-2014-N005,D0311,NOSWORTHY PARK,CORINDA,MAINS POWER,2,152.987613,-27.53958085
494224.9799,6967899.571,9,100269338,BBQ - ELECTRIC DOUBLE,BARBEQUE,B-RE-1531-N009,D0631,KEPERRA PICNIC GROUND PARK,FERNY GROVE,MAINS POWER,2,152.9415784,-27.41226815
505679.8977,6943625.749,10,200500405,BBQ - ELECTRIC SINGLE,BARBEQUE,B-RE-2077-N001,D1242,MING-SHAN PARK,CALAMVALE,MAINS POWER,1,153.0575733,-27.63141061
504743.9337,6970126.54,11,200500304,BBQ - ELECTRIC SINGLE,BARBEQUE,B-RE-1806-N001,D0016,RILATT PARK,WAVELL HEIGHTS,MAINS POWER,1,153.0479822,-27.39216688
506792.9379,6945155.369,12,100119694,BBQ - ELECTRIC SINGLE,BARBEQUE,B-RE-2560-N001,D1120,STRETTON COMMUNITY PARK,STRETTON,MAINS POWER,1,153.0688468,-27.6175964
517425.0244,6964634.493,13,200488161,BBQ - ELECTRIC SINGLE,BARBEQUE,B-RE-2628-N007,D0995,WYNNUM WADING POOL PARK,WYNNUM,MAINS POWER,1,153.1763225,-27.4416461
508430.3066,6973129.238,14,200489468,BBQ - ELECTRIC SINGLE,BARBEQUE,B-RE-2451-N002,D0759,SHOWGROUND PARK,NUDGEE,MAINS POWER,1,153.0852469,-27.36504043
504401.3993,6967789.017,15,200489542,BBQ - ELECTRIC DOUBLE,BARBEQUE,B-RE-1493-N001,D0512,MELROSE PARK,WOOLOOWIN,MAINS POWER,2,153.0445261,-27.41327136
496246.7086,6953557.476,16,200483284,BBQ - ELECTRIC DOUBLE,BARBEQUE,B-RE-0673-N013,D1845,ROCKS RIVERSIDE PARK,SEVENTEEN MILE ROCKS,MAINS POWER,2,152.9619863,-27.54175534
500881.9542,6977408.8,17,200486834,BBQ - ELECTRIC DOUBLE,BARBEQUE,B-RE-1768-N003,D0219,JOHN STEWART MEMORIAL PARK,BALD HILLS,MAINS POWER,2,153.0089152,-27.32642964
499306.6003,6966248.791,18,200480359,BBQ - ELECTRIC SINGLE,BARBEQUE,B-RE-1710-N004,D0134,WILLMINGTON PARK,ALDERLEY,MAINS POWER,1,152.9929845,-27.42718354
511031.926,6953366.372,19,200480407,BBQ - WOOD SINGLE,BARBEQUE,B-RE-1499-N002,D0434,BROADWATER PICNIC GROUND PARK,MANSFIELD,WOOD FIRED,1,153.111734,-27.5434409
503655.7901,6973316.35,20,200480410,BBQ - ELECTRIC SINGLE,BARBEQUE,B-RE-1764-N001,D0224,LEN TREZONA PARK,ZILLMERE,MAINS POWER,1,153.0369666,-27.36337229
498418.0673,6971310.401,21,200488376,BBQ - ELECTRIC SINGLE,BARBEQUE,B-RE-0093-N003,D2083,SUNSET PLACE PARK,MCDOWALL,MAINS POWER,1,152.9840012,-27.38148621
502488.9304,6964658.351,22,200488486,BBQ - ELECTRIC SINGLE,BARBEQUE,B-RE-1442-N001,D0492,DOWNEY PARK,WINDSOR,MAINS POWER,1,153.0251853,-27.44153999
502744.4492,6945333.931,23,200488506,BBQ - ELECTRIC DOUBLE,BARBEQUE,B-RE-1559-N005,D0678,COL BENNET PARK,ALGESTER,MAINS POWER,2,153.0278147,-27.61599867
514864.4998,6959668.92,24,200488532,BBQ - ELECTRIC SINGLE,BARBEQUE,B-RE-0459-N005,D1572,WAKERLEY PARK,WAKERLEY,MAINS POWER,1,153.1504737,-27.4865055
510725.1971,6958512.504,25,200472224,BBQ - ELECTRIC SINGLE,BARBEQUE,B-RE-1590-N008,D0723,CARINDALE RECREATION RESERVE,CARINDALE,MAINS POWER,1,153.1085817,-27.49698455
516132.8283,6959614.148,26,100294941,BBQ - ELECTRIC SINGLE,BARBEQUE,B-RE-0352-N001,D2232,SHERIFF PARK,WAKERLEY,MAINS POWER,1,153.1633137,-27.48698551
500273.474,6964343.047,27,200504674,BBQ - WOOD SINGLE,BARBEQUE,B-RE-2045-N002,D1316,FREE STREET PARK,NEWMARKET,WOOD FIRED,1,153.0027673,-27.44438881
497770.7407,6943991.3,28,200504226,BBQ - WOOD SINGLE,BARBEQUE,B-RE-0620-N006,D1810,PACIFIC PARADE PARK,FOREST LAKE,WOOD FIRED,1,152.9774042,-27.6281206
510600.4045,6957527.555,29,200515180,BBQ - WOOD DOUBLE,BARBEQUE,B-RE-2387-N004,D0911,ANNA SMITH OBE QUOTA PARK,CARINDALE,WOOD FIRED,2,153.107327,-27.50587759
509134.0506,6963748.236,30,200513485,BBQ - ELECTRIC SINGLE,BARBEQUE,B-RE-0572-N009,D1763,COLMSLIE BEACH RESERVE,MURARRIE,MAINS POWER,1,153.0924336,-27.44972815
496617.4824,6961049.236,31,100264661,BBQ - GAS DOUBLE (SOLAR IGNITION),BARBEQUE,B-RE-1901-N034,D0249,MT COOT-THA RESERVE,MOUNT COOT-THA,BOTTLED GAS,2,152.9657625,-27.47412116
501571.7739,6963194.451,32,200519789,BBQ - ELECTRIC SINGLE,BARBEQUE,B-RE-0343-N002,D2472,MAIDSTONE STREET PARK,KELVIN GROVE,MAINS POWER,1,153.0159066,-27.45475747
511051.4439,6953219.242,33,200474557,BBQ - WOOD SINGLE,BARBEQUE,B-RE-1499-N008,D0434,BROADWATER PICNIC GROUND PARK,MANSFIELD,WOOD FIRED,1,153.111933,-27.54476901
496561.8216,6958340.909,34,100115257,BBQ - ELECTRIC DOUBLE,BARBEQUE,B-RE-1501-N006,D0430,MOORE PARK,INDOOROOPILLY,MAINS POWER,2,152.9651914,-27.49857171
505701.4344,6956410.996,35,200524318,BBQ - ELECTRIC SINGLE,BARBEQUE,B-RE-1717-N005,D0119,C.B.MOTT PARK,HOLLAND PARK,MAINS POWER,1,153.0577312,-27.51598722
511864.8386,6967017.703,36,200488295,BBQ - ELECTRIC SINGLE,BARBEQUE,B-RE-0596-N001,D1902,THOMAS McBRIDE PARK,PINKENBA,MAINS POWER,1,153.1200362,-27.42019027
508094.63,6948228.867,37,100265673,BBQ - ELECTRIC DOUBLE,BARBEQUE,B-RE-2152-N001,D1160,GARRETT PARK,RUNCORN,MAINS POWER,2,153.0820189,-27.58984228
508299.6782,6959332.387,38,200528664,BBQ - ELECTRIC SINGLE,BARBEQUE,B-RE-1855-N006,D0054,LAVARACK PARK,CAMP HILL,MAINS POWER,1,153.0840202,-27.48959969
501327.6722,6963547.529,39,200529232,BBQ - ELECTRIC SINGLE,BARBEQUE,B-RE-0218-N002,D2996,GREY GUMS PARK,KELVIN GROVE,MAINS POWER,1,153.0134358,-27.45157014
496396.5996,6953353.904,40,200529251,BBQ - ELECTRIC DOUBLE,BARBEQUE,B-RE-0673-N022,D1845,ROCKS RIVERSIDE PARK,SEVENTEEN MILE ROCKS,MAINS POWER,2,152.9635038,-27.54359357
495852.5816,6961797.197,41,200542877,BBQ - GAS DOUBLE (SOLAR IGNITION),BARBEQUE,B-RE-1901-N008,D0249,MT COOT-THA RESERVE,MOUNT COOT-THA,BOTTLED GAS,2,152.9580228,-27.46736647
496569.4655,6952997.397,42,200541703,BBQ - ELECTRIC SINGLE,BARBEQUE,B-RE-0283-N004,D2176,FORT ROAD BUSHLANDS,OXLEY,MAINS POWER,1,152.9652537,-27.54681253
505327.9044,6962569.848,43,200548811,BBQ - ELECTRIC SINGLE,BARBEQUE,B-RE-1789-N004,D0036,HARDCASTLE PARK,HAWTHORNE,MAINS POWER,1,153.0539218,-27.46038686
512002.0001,6958923.89,44,200550667,BBQ - WOOD SINGLE,BARBEQUE,B-RE-1604-N008,D0640,MEADOWLANDS PICNIC GROUND PARK,TINGALPA,WOOD FIRED,1,153.121504,-27.4932599
509525.0067,6949866.175,45,200554622,BBQ - ELECTRIC SINGLE,BARBEQUE,B-RE-0122-N002,D1961,BUCKINGHAM PLACE PARK,EIGHT MILE PLAINS,MAINS POWER,1,153.0964992,-27.57505162
500170.1333,6958985.357,46,200476250,BBQ - ELECTRIC DOUBLE,BARBEQUE,B-RE-1936-N002,D0408,GUYATT PARK,ST LUCIA,MAINS POWER,2,153.0017224,-27.492758
497319.8868,6957499.68,47,200560980,BBQ - ELECTRIC SINGLE,BARBEQUE,B-RE-1656-N001,D0707,TAYLOR BRIDGE RESERVE,CHELMER,MAINS POWER,1,152.9728643,-27.50616799
500490.4889,6966115.04,48,200561119,BBQ - ELECTRIC SINGLE,BARBEQUE,B-RE-1697-N005,D0127,SEDGLEY PARK,ALDERLEY,MAINS POWER,1,153.0049626,-27.42839114
502280.9165,6958069.794,49,200477175,BBQ - WOOD SINGLE,BARBEQUE,B-RE-1471-N004,D0371,PRINCESS STREET PARK (NOS.5-21),FAIRFIELD,WOOD FIRED,1,153.0230928,-27.50102176
504591.163,6962792.423,50,200477079,BBQ - ELECTRIC SINGLE,BARBEQUE,B-RE-1834-N004,D0078,TENERIFFE PARK,TENERIFFE,MAINS POWER,1,153.0464647,-27.45838014
503271.0007,6964701.954,51,200569299,BBQ - ELECTRIC DOUBLE,BARBEQUE,B-RE-1519-N001,D0503,MANN PARK,WINDSOR,MAINS POWER,2,153.0330989,-27.44114469
503321.806,6980380.433,52,200502692,BBQ - ELECTRIC SINGLE,BARBEQUE,B-RE-2317-N011,D1252,TINCHI TAMBA WETLANDS RESERVE,BALD HILLS,MAINS POWER,1,153.0335702,-27.29959742
508324.032,6977726.903,53,200500845,BBQ - ELECTRIC DOUBLE,BARBEQUE,B-RE-1875-N026,D0276,SANDGATE FORESHORES PARK,SANDGATE,MAINS POWER,2,153.0841409,-27.32353271
518478.3604,6963516.416,54,200501073,BBQ - ELECTRIC DOUBLE,BARBEQUE,B-RE-1685-N004,D0517,BAYSIDE PARK,MANLY,MAINS POWER,2,153.1869981,-27.45172618
506636.5199,6958536.319,55,200470540,BBQ - WOOD SINGLE,BARBEQUE,B-RE-1649-N003,D0603,LEICESTER STREET PARK,COORPAROO,WOOD FIRED,1,153.0671879,-27.49679569
490535.8328,6953083.859,56,200488961,BBQ - ELECTRIC DOUBLE,BARBEQUE,B-RE-0401-N003,D1544,RIVERVIEW FARM PARK,WESTLAKE,MAINS POWER,2,152.9041424,-27.54600325
503424.7285,6971933.538,57,200488993,BBQ - ELECTRIC SINGLE,BARBEQUE,B-RE-2004-N032,D0228,7TH BRIGADE PARK,CHERMSIDE,MAINS POWER,1,153.0346341,-27.37585708
502954.366,6971709.515,58,100119619,BBQ - ELECTRIC SINGLE,BARBEQUE,B-RE-1761-N001,D0227,MARCHANT PARK,ASPLEY,MAINS POWER,1,153.0298779,-27.37788068
500195.2248,6974908.4,59,100116432,BBQ - ELECTRIC SINGLE,BARBEQUE,B-RE-2460-N003,D0750,FLAMETREE STREET PARK,BRIDGEMAN DOWNS,MAINS POWER,1,153.0019738,-27.34900393
499568.0745,6960614.98,60,100085223,BBQ - ELECTRIC SINGLE,BARBEQUE,B-RE-1370-N013,D0471,TOOWONG MEMORIAL PARK,TOOWONG,MAINS POWER,1,152.9956279,-27.47804576
484272.7055,6953464.163,61,100086070,BBQ - ELECTRIC DOUBLE,BARBEQUE,B-RE-0610-N011,D1886,KOOKABURRA PARK - WEST,KARANA DOWNS,MAINS POWER,2,152.8407116,-27.54251169
504350.7927,6978412.409,62,200524468,BBQ - ELECTRIC SINGLE,BARBEQUE,B-RE-2646-N003,D0975,FRED FRANCIS PARK,BRACKEN RIDGE,MAINS POWER,1,153.0439762,-27.31736225
506046.355,6970260.619,63,200478281,BBQ - ELECTRIC SINGLE,BARBEQUE,B-RE-0014-N002,D0456,PLAISTED PLACE PARK,NORTHGATE,MAINS POWER,1,153.0611547,-27.39095126
505164.1741,6961373.909,64,100085085,BBQ - ELECTRIC SINGLE,BARBEQUE,B-RE-1736-N017,D0095,NEW FARM PARK,NEW FARM,MAINS POWER,1,153.0522699,-27.47118442
494569.5969,6953227.352,65,100085953,BBQ - ELECTRIC SINGLE,BARBEQUE,B-RE-2690-N003,D0919,AVONDALE PARK,SINNAMON PARK,MAINS POWER,1,152.9449989,-27.54472998
503707.841,6944843.689,66,200488241,BBQ - ELECTRIC DOUBLE,BARBEQUE,B-RE-0312-N004,D2072,CALAMVALE DISTRICT PARK,CALAMVALE,MAINS POWER,2,153.0375801,-27.62042217
503748.0562,6944838.29,67,100085484,BBQ - ELECTRIC DOUBLE,BARBEQUE,B-RE-0312-N004,D2072,CALAMVALE DISTRICT PARK,CALAMVALE,MAINS POWER,2,153.0379878,-27.6204708
507005.0243,6946801.1,68,200477289,BBQ - ELECTRIC DOUBLE,BARBEQUE,B-RE-1565-N002,D0672,WILLIAMS PARK,RUNCORN,MAINS POWER,2,153.0709867,-27.60273798
507778.3675,6957189.687,69,100085078,BBQ - ELECTRIC DOUBLE,BARBEQUE,B-RE-1853-N012,D0056,WHITES HILL RESERVE,CAMP HILL,MAINS POWER,2,153.0787566,-27.50894694
515711.7731,6960162.671,70,200529045,BBQ - ELECTRIC DOUBLE,BARBEQUE,B-RE-0235-N002,D2634,TORRENS CRESCENT PARK,WAKERLEY,MAINS POWER,2,153.1590442,-27.48203842
500634.8692,6955479.298,71,100101216,BBQ - ELECTRIC DOUBLE,BARBEQUE,B-RE-0265-N002,D3398,KEN FLETCHER PARK,TENNYSON,MAINS POWER,2,153.006429,-27.52441036
494327.751,6952330.667,72,100101987,BBQ - WOOD SINGLE,BARBEQUE,B-RE-2605-N001,D1044,SETTLERS PARK,SINNAMON PARK,WOOD FIRED,1,152.9425452,-27.55282416
498163.0593,6960453.541,73,100271121,BBQ - ELECTRIC SINGLE,BARBEQUE,B-RE-1373-N002,D0467,ANZAC PARK,MOUNT COOT-THA,MAINS POWER,1,152.9814058,-27.47950206
506650.9489,6957290.422,74,100105130,BBQ - ELECTRIC DOUBLE,BARBEQUE,B-RE-1718-N003,D0118,MAJESTIC PARK,COORPAROO,MAINS POWER,2,153.0673408,-27.50804351
518426.3333,6959768.271,75,100107270,BBQ - GAS DOUBLE,BARBEQUE,B-RE-2285-N006,D1376,CHELSEA ROAD PARK (NOS.399-551),RANSOME,BOTTLED GAS,2,153.1865285,-27.48556492
502898.2777,6975665.811,76,100107599,BBQ - ELECTRIC DOUBLE,BARBEQUE,B-RE-0474-N005,D1461,IRIS PLACE PARK,FITZGIBBON,MAINS POWER,2,153.0293012,-27.34216285
502648.7219,6975854.503,77,100107611,BBQ - ELECTRIC DOUBLE,BARBEQUE,B-RE-2724-N002,D2189,KURINGGAI PARK,FITZGIBBON,MAINS POWER,2,153.0267779,-27.34045981
497080.556,6961213.994,78,100264401,BBQ - GAS DOUBLE (SOLAR IGNITION),BARBEQUE,B-RE-1901-N023,D0249,MT COOT-THA RESERVE,MOUNT COOT-THA,BOTTLED GAS,2,152.9704501,-27.47263481
497522.7805,6958216.885,79,100108592,BBQ - ELECTRIC SINGLE,BARBEQUE,B-RE-1807-N003,D0015,KEATING PARK,INDOOROOPILLY,MAINS POWER,1,152.97492,-27.49969349
501358.1027,6965127.814,80,100109249,BBQ - ELECTRIC DOUBLE,BARBEQUE,B-RE-1446-N005,D0487,MCCOOK PARK,NEWMARKET,MAINS POWER,2,153.013742,-27.43730326
506868.2902,6955257.112,81,100110470,BBQ - ELECTRIC SINGLE,BARBEQUE,B-RE-1846-N001,D0064,GLINDEMANN PARK,HOLLAND PARK WEST,MAINS POWER,1,153.069553,-27.52639899
500034.2879,6961620.467,82,100115892,BBQ - ELECTRIC DOUBLE,BARBEQUE,B-RE-0416-N002,D1723,FREW PARK,MILTON,MAINS POWER,2,153.000347,-27.46896831
496272.3403,6944303.839,83,100119402,BBQ - ELECTRIC DOUBLE,BARBEQUE,B-RE-2099-N029,D1279,THE LAKE PARKLANDS,FOREST LAKE,MAINS POWER,2,152.9622173,-27.62529576
506192.6969,6969211.824,84,100125464,BBQ - ELECTRIC DOUBLE,BARBEQUE,B-RE-1393-N006,D0454,OXENHAM PARK,NUNDAH,MAINS POWER,2,153.0626402,-27.40041921
501458.1347,6963378.224,85,100125765,BBQ - ELECTRIC DOUBLE,BARBEQUE,B-RE-0315-N002,D2068,KUNDU PARK,KELVIN GROVE,MAINS POWER,2,153.0147563,-27.45309849
502954.3232,6975799.213,86,100125836,BBQ - ELECTRIC SINGLE,BARBEQUE,B-RE-2725-N002,D2193,DAINTREE PARK,FITZGIBBON,MAINS POWER,1,153.0298675,-27.34095836
495859.3152,6961822.802,87,100132313,BBQ - GAS DOUBLE (SOLAR IGNITION),BARBEQUE,B-RE-1901-N008,D0249,MT COOT-THA RESERVE,MOUNT COOT-THA,BOTTLED GAS,2,152.9580911,-27.46713532
497155.7075,6961295.1,88,100132673,BBQ - GAS DOUBLE (SOLAR IGNITION),BARBEQUE,B-RE-1901-N023,D0249,MT COOT-THA RESERVE,MOUNT COOT-THA,BOTTLED GAS,2,152.9712109,-27.47190274
500085.8719,6960272.731,89,100135926,BBQ - ELECTRIC DOUBLE,BARBEQUE,B-RE-1911-N005,D0343,WEST END RIVERSIDE LANDS PARK,WEST END,MAINS POWER,2,153.0008692,-27.48113565
496098.0542,6968412.895,90,100136132,BBQ - ELECTRIC SINGLE,BARBEQUE,B-RE-1741-N003,D0157,JURAYELBA PLACE PARK,KEPERRA,MAINS POWER,1,152.9605286,-27.40764047
490073.4119,6951244.373,91,100252286,BBQ - ELECTRIC SINGLE,BARBEQUE,B-RE-0047-N010,D2040,NEWCOMB PARK,RIVERHILLS,MAINS POWER,1,152.8994437,-27.56260657
486469.683,6949249.218,92,100267476,BBQ - ELECTRIC DOUBLE,BARBEQUE,B-RE-0228-N011,D2833,MOGGILL DISTRICT SPORT PARK,MOGGILL,MAINS POWER,2,152.8629156,-27.58058728
507760.3341,6972149.674,93,100273101,BBQ - ELECTRIC DOUBLE,BARBEQUE,B-RE-1401-N008,D0444,BANYO MEMORIAL PARK,BANYO,MAINS POWER,2,153.0784784,-27.37388801
503870.6661,6969114.823,94,100275146,BBQ - ELECTRIC SINGLE,BARBEQUE,B-RE-1987-N032,D0245,SHAW ESTATE PARK,WAVELL HEIGHTS,MAINS POWER,1,153.0391528,-27.40130351
504836.8203,6964760.49,95,100092418,BBQ - ELECTRIC DOUBLE,BARBEQUE,B-RE-1977-N003,D0171,CAMERON ROCKS RESERVE,HAMILTON,MAINS POWER,2,153.048943,-27.44061156
503286.0632,6952718.369,96,100281987,BBQ - ELECTRIC SINGLE,BARBEQUE,B-RE-1638-N011,D0553,SALISBURY RECREATION RESERVE,SALISBURY,MAINS POWER,1,153.0332838,-27.54933192
506173.3894,6978769.832,97,200474131,BBQ - WOOD SINGLE,BARBEQUE,B-RE-1869-N013,D0284,SANDGATE SECOND LAGOON RESERVE,SANDGATE,WOOD FIRED,1,153.0623965,-27.31412835
502700.3111,6945360.419,98,200524761,BBQ - WOOD SINGLE,BARBEQUE,B-RE-1559-N005,D0678,COL BENNET PARK,ALGESTER,WOOD FIRED,1,153.0273673,-27.61575963
508333.1215,6951556.688,99,100293895,BBQ - ELECTRIC DOUBLE,BARBEQUE,B-RE-1190-N004,D3175,TRYON STREET PARK,UPPER MOUNT GRAVATT,MAINS POWER,2,153.0844124,-27.55979778
503663.8818,6958182.388,100,100298022,BBQ - ELECTRIC DOUBLE,BARBEQUE,B-RE-0259-N003,D3533,CARL STREET PARK,WOOLLOONGABBA,MAINS POWER,2,153.0370941,-27.50000224
502736.1821,6967666.864,101,200478587,BBQ - WOOD SINGLE,BARBEQUE,B-RE-1949-N002,D0202,GORDON PARK PLAYGROUND PARK,GORDON PARK,WOOD FIRED,1,153.0276804,-27.41437854
485961.4234,6947536.089,102,100302382,BBQ - GAS SINGLE (SOLAR IGNITION),BARBEQUE,B-RE-1880-N002,D0271,MOGGILL FERRY RESERVE,MOGGILL,BOTTLED GAS,1,152.8577461,-27.5960479
499203.0873,6959172.723,103,100310766,BBQ - ELECTRIC DOUBLE,BARBEQUE,B-RE-1378-N003,D0480,PERRIN PARK,TOOWONG,MAINS POWER,2,152.9919325,-27.49106625
509026.2871,6946770.969,104,100312982,BBQ - ELECTRIC DOUBLE,BARBEQUE,B-RE-1553-N022,D0685,WALLY TATE PARK,KURABY,MAINS POWER,2,153.0914698,-27.60299801
508913.0391,6963692.877,105,200479105,BBQ - ELECTRIC SINGLE,BARBEQUE,B-RE-0572-N003,D1763,COLMSLIE BEACH RESERVE,MURARRIE,MAINS POWER,1,153.0901974,-27.45022939
502792.5712,6970558.872,106,200479134,BBQ - ELECTRIC SINGLE,BARBEQUE,B-RE-2003-N003,D0229,JOHN PATTERSON PARK,CHERMSIDE,MAINS POWER,1,153.0282443,-27.38826914
506884.0176,6978878.378,107,200471654,BBQ - ELECTRIC SINGLE,BARBEQUE,B-RE-1875-N014,D0276,SANDGATE FORESHORES PARK,SANDGATE,MAINS POWER,1,153.0695785,-27.31314499
496729.4193,6944693.865,108,100267976,BBQ - ELECTRIC DOUBLE,BARBEQUE,B-RE-2099-N006,D1279,THE LAKE PARKLANDS,FOREST LAKE,MAINS POWER,2,152.9668512,-27.62177588
502464.6092,6942715.82,109,100299000,BBQ - ELECTRIC SINGLE,BARBEQUE,B-RE-0069-N004,D2028,TALISKER PLACE PARK,PARKINSON,MAINS POWER,1,153.024984,-27.63963495
516232.0517,6950360.601,110,200479210,BBQ - ELECTRIC DOUBLE,BARBEQUE,B-RE-2633-N002,D0989,LEACROFT ROAD PARK,BURBANK,MAINS POWER,2,153.1644424,-27.57052421
508202.447,6977880.762,111,200480647,BBQ - ELECTRIC SINGLE,BARBEQUE,B-RE-1875-N012,D0276,SANDGATE FORESHORES PARK,SANDGATE,MAINS POWER,1,153.0829108,-27.32214438
503198.8666,6978060.788,112,200502786,BBQ - ELECTRIC SINGLE,BARBEQUE,B-RE-2352-N005,D1394,BARRETT STREET PARK (WATER RESERVE),BRACKEN RIDGE,MAINS POWER,1,153.0323339,-27.32053993
503172.7534,6978092.552,113,200502791,BBQ - ELECTRIC SINGLE,BARBEQUE,B-RE-2352-N005,D1394,BARRETT STREET PARK (WATER RESERVE),BRACKEN RIDGE,MAINS POWER,1,153.0320699,-27.32025322
498142.7296,6972169.191,114,200507010,BBQ - ELECTRIC SINGLE,BARBEQUE,B-RE-0567-N001,D1768,DR VALENTINE McDOWALL PARK,MCDOWALL,MAINS POWER,1,152.9812179,-27.37373261
501281.3471,6971590.462,115,200488238,BBQ - ELECTRIC SINGLE,BARBEQUE,B-RE-1672-N008,D0662,JOHN GOSS RESERVE,CHERMSIDE WEST,MAINS POWER,1,153.0129585,-27.3789581
495682.8457,6954375.143,116,200471970,BBQ - ELECTRIC SINGLE,BARBEQUE,B-RE-2280-N008,D1381,AMAZONS PLACE PARK,JINDALEE,MAINS POWER,1,152.9562784,-27.53437184
506406.0463,6981157.342,117,200478574,BBQ - ELECTRIC SINGLE,BARBEQUE,B-RE-1875-N004,D0276,SANDGATE FORESHORES PARK,SANDGATE,MAINS POWER,1,153.0647356,-27.29257237
503617.9513,6952588.202,118,100119557,BBQ - ELECTRIC SINGLE,BARBEQUE,B-RE-1638-N015,D0553,SALISBURY RECREATION RESERVE,SALISBURY,MAINS POWER,1,153.0366458,-27.55050621
502874.2545,6952842.068,119,200478763,BBQ - WOOD SINGLE,BARBEQUE,B-RE-1639-N003,D0551,BILL MOORE PARK,SALISBURY,WOOD FIRED,1,153.0291124,-27.54821611
504185.6241,6950538.377,120,200478783,BBQ - WOOD SINGLE,BARBEQUE,B-RE-2216-N002,D1472,JOY TAYLOR PARK,COOPERS PLAINS,WOOD FIRED,1,153.0424028,-27.56901012
505268.7487,6965524.837,121,200471729,BBQ - WOOD SINGLE,BARBEQUE,B-RE-2431-N002,D0836,MIKADO STREET PARK,ASCOT,WOOD FIRED,1,153.0533103,-27.43370941
509863.0004,6950683.859,122,200481713,BBQ - ELECTRIC SINGLE,BARBEQUE,B-RE-2165-N003,D1144,MAISIE DIXON PARK,EIGHT MILE PLAINS,MAINS POWER,1,153.0999168,-27.56766727
503344.2665,6971617.694,123,200480335,BBQ - ELECTRIC DOUBLE,BARBEQUE,B-RE-2004-N035,D0228,7TH BRIGADE PARK,CHERMSIDE,MAINS POWER,2,153.0338212,-27.37870876
498544.0236,6973558.972,124,200479071,BBQ - ELECTRIC SINGLE,BARBEQUE,B-RE-2471-N002,D0798,WENDON WAY PARK,BRIDGEMAN DOWNS,MAINS POWER,1,152.9852777,-27.36118599
491246.7153,6959023.18,125,200471625,BBQ - WOOD SINGLE,BARBEQUE,B-RE-1878-N002,D0273,BROOKFIELD RECREATION RESERVE,BROOKFIELD,WOOD FIRED,1,152.9113856,-27.49238834
505086.5913,6946384.536,126,200482018,BBQ - ELECTRIC SINGLE,BARBEQUE,B-RE-2486-N002,D0819,VOGLER PARK,SUNNYBANK HILLS,MAINS POWER,1,153.0515477,-27.60650722
505034.1187,6969810.758,127,100124337,BBQ - ELECTRIC SINGLE,BARBEQUE,B-RE-1996-N003,D0236,FRANK ROBERTS PARK,WAVELL HEIGHTS,MAINS POWER,1,153.0509185,-27.39501675
497356.5643,6954638.403,128,200482039,BBQ - ELECTRIC DOUBLE,BARBEQUE,B-RE-2018-N015,D0305,SHERWOOD ARBORETUM,SHERWOOD,MAINS POWER,2,152.9732294,-27.53199946
499803.9454,6959339.187,129,200482008,BBQ - ELECTRIC SINGLE,BARBEQUE,B-RE-1908-N005,D0346,ORLEIGH PARK,WEST END,MAINS POWER,1,152.9980153,-27.48956364
501833.4228,6971579.597,130,200488634,BBQ - ELECTRIC DOUBLE,BARBEQUE,B-RE-1771-N004,D0216,FREDERICK ANNAND PARK,CHERMSIDE WEST,MAINS POWER,2,153.0185418,-27.37905556
510057.8299,6961892.187,131,200503381,BBQ - ELECTRIC SINGLE,BARBEQUE,B-RE-1858-N005,D0051,MURARRIE RECREATION GROUND,MURARRIE,MAINS POWER,1,153.1017973,-27.46647802
507866.2628,6971358.958,132,200504679,BBQ - ELECTRIC SINGLE,BARBEQUE,B-RE-0328-N003,D2556,CHURCHILL CIRCUIT PARK,BANYO,MAINS POWER,1,153.0795547,-27.38102607
503453.7327,6980417.221,133,100253087,BBQ - ELECTRIC SINGLE,BARBEQUE,B-RE-2317-N009,D1252,TINCHI TAMBA WETLANDS RESERVE,BALD HILLS,MAINS POWER,1,153.0349034,-27.29926497
498012.1008,6944680.65,134,200504234,BBQ - ELECTRIC SINGLE,BARBEQUE,B-RE-0620-N004,D1810,PACIFIC PARADE PARK,FOREST LAKE,MAINS POWER,1,152.9798517,-27.62189767
506406.5857,6981115.319,135,200515741,BBQ - ELECTRIC SINGLE,BARBEQUE,B-RE-1875-N004,D0276,SANDGATE FORESHORES PARK,SANDGATE,MAINS POWER,1,153.0647412,-27.29295176
510031.5364,6962745.12,136,100270358,BBQ - ELECTRIC SINGLE,BARBEQUE,B-RE-0221-N001,D2993,MINGOOLA PARK,MURARRIE,MAINS POWER,1,153.1015241,-27.45877795
510202.1932,6951479.643,137,200513024,BBQ - ELECTRIC SINGLE,BARBEQUE,B-RE-1588-N001,D0725,WISHART COMMUNITY PARK,WISHART,MAINS POWER,1,153.1033462,-27.56048054
507391.1645,6978054.664,138,200516436,BBQ - ELECTRIC DOUBLE,BARBEQUE,B-RE-1867-N001,D0286,CLIFF STREET PARK,SANDGATE,MAINS POWER,2,153.0747093,-27.32057899
510085.0439,6955692.973,139,200514098,BBQ - WOOD SINGLE,BARBEQUE,B-RE-1673-N001,D0661,TILLACK PARK,MANSFIELD,WOOD FIRED,1,153.1021243,-27.52244397
495499.5993,6955435.616,140,100125935,BBQ - WOOD SINGLE,BARBEQUE,B-RE-2580-N003,D1018,FIG TREE COMMON PARK,FIG TREE POCKET,WOOD FIRED,1,152.9544265,-27.5247974
497087.1891,6947225.092,141,200474286,BBQ - WOOD SINGLE,BARBEQUE,B-RE-1691-N001,D0584,CORMORANT STREET PARK,INALA,WOOD FIRED,1,152.9704835,-27.59892527
508397.4859,6977609.817,142,200522568,BBQ - ELECTRIC SINGLE,BARBEQUE,B-RE-1865-N002,D0288,MOORA PARK,SHORNCLIFFE,MAINS POWER,1,153.0848842,-27.32458933
503424.1739,6962049.063,143,100085058,BBQ - ELECTRIC DOUBLE,BARBEQUE,B-RE-1837-N008,D0075,CAPTAIN BURKE PARK,KANGAROO POINT,MAINS POWER,2,153.0346563,-27.46509464
503420.1872,6960637.611,144,200527477,BBQ - ELECTRIC SINGLE,BARBEQUE,B-RE-1557-N008,D0680,KANGAROO POINT CLIFFS PARK,KANGAROO POINT,MAINS POWER,1,153.0346199,-27.47783722
497441.3398,6958215.605,145,200532274,BBQ - ELECTRIC SINGLE,BARBEQUE,B-RE-1807-N003,D0015,KEATING PARK,INDOOROOPILLY,MAINS POWER,1,152.9740955,-27.4997049
507236.2402,6958731.44,146,200528667,BBQ - WOOD SINGLE,BARBEQUE,B-RE-1727-N003,D0106,TARANA STREET PARK,CAMP HILL,WOOD FIRED,1,153.0732583,-27.49503109
499142.4493,6943459.328,147,200535197,BBQ - ELECTRIC SINGLE,BARBEQUE,B-RE-0357-N001,D2190,BRUSH BOX PLACE PARK,HEATHWOOD,MAINS POWER,1,152.9913075,-27.6329247
497020.2493,6961623.541,148,200536457,BBQ - WOOD SINGLE,BARBEQUE,B-RE-1901-N013,D0249,MT COOT-THA RESERVE,MOUNT COOT-THA,WOOD FIRED,1,152.9698407,-27.46893729
496888.8367,6961184.661,149,100264426,BBQ - GAS DOUBLE (SOLAR IGNITION),BARBEQUE,B-RE-1901-N031,D0249,MT COOT-THA RESERVE,MOUNT COOT-THA,BOTTLED GAS,2,152.9685095,-27.4728992
487446.4036,6950325.334,150,200535892,BBQ - ELECTRIC DOUBLE,BARBEQUE,B-RE-0241-N004,D2613,WESTAWAY PARK (MOGGILL),MOGGILL,MAINS POWER,2,152.8728226,-27.5708817
496461.3001,6961934.74,151,100115345,BBQ - GAS DOUBLE (SOLAR IGNITION),BARBEQUE,B-RE-1901-N002,D0249,MT COOT-THA RESERVE,MOUNT COOT-THA,BOTTLED GAS,2,152.9641842,-27.46612645
495890.2587,6961888.205,152,200542926,BBQ - GAS DOUBLE (SOLAR IGNITION),BARBEQUE,B-RE-1901-N008,D0249,MT COOT-THA RESERVE,MOUNT COOT-THA,BOTTLED GAS,2,152.9584045,-27.46654496
501520.315,6974159.214,153,100289531,BBQ - ELECTRIC SINGLE,BARBEQUE,B-RE-1770-N004,D0217,ASPLEY REST PARK,CARSELDINE,MAINS POWER,1,153.0153721,-27.35576685
512431.1735,6953486.938,154,200548904,BBQ - ELECTRIC SINGLE,BARBEQUE,B-RE-2294-N001,D1335,MACKENZIE PARK,MACKENZIE,MAINS POWER,1,153.1259046,-27.54234032
497814.1616,6967352.32,155,200549013,BBQ - ELECTRIC DOUBLE,BARBEQUE,B-RE-1698-N007,D0126,SID LODER PARK,MITCHELTON,MAINS POWER,2,152.9778865,-27.41721925
504240.4954,6952030.311,156,100123880,BBQ - ELECTRIC SINGLE,BARBEQUE,B-RE-1637-N002,D0554,ROSEBANK SQUARE,SALISBURY,MAINS POWER,1,153.0429535,-27.55554097
498868.4988,6943294.536,157,200551856,BBQ - ELECTRIC SINGLE,BARBEQUE,B-RE-0234-N001,D2635,HAZEL STREET PARK,HEATHWOOD,MAINS POWER,1,152.9885304,-27.63441221
505308.4914,6963331.32,158,200560920,BBQ - ELECTRIC SINGLE,BARBEQUE,B-RE-0233-N006,D2672,BULIMBA RIVERSIDE PARK,BULIMBA,MAINS POWER,1,153.053722,-27.45351237
492956.1796,6954857.121,159,200560927,BBQ - ELECTRIC DOUBLE,BARBEQUE,B-RE-1920-N004,D0338,JINDALEE BOAT RAMP PARK,JINDALEE,MAINS POWER,2,152.9286672,-27.53000917
492928.6442,6954802.405,160,200560928,BBQ - ELECTRIC DOUBLE,BARBEQUE,B-RE-1920-N004,D0338,JINDALEE BOAT RAMP PARK,JINDALEE,MAINS POWER,2,152.928388,-27.530503
503040.5933,6942530.336,161,200559366,BBQ - ELECTRIC SINGLE,BARBEQUE,B-RE-0170-N002,D2005,DAINTREE DRIVE PARK (NO.65),PARKINSON,MAINS POWER,1,153.0308232,-27.64130827
505188.3435,6961648.956,162,200560683,BBQ - ELECTRIC SINGLE,BARBEQUE,B-RE-1736-N002,D0095,NEW FARM PARK,NEW FARM,MAINS POWER,1,153.0525133,-27.46870121
519013.1519,6961864.459,163,200560507,BBQ - ELECTRIC DOUBLE,BARBEQUE,B-RE-1426-N010,D0530,LOTA CAMPING RESERVE,LOTA,MAINS POWER,2,153.192436,-27.4666326
505273.0678,6961499.97,164,200570294,BBQ - ELECTRIC DOUBLE,BARBEQUE,B-RE-1736-N018,D0095,NEW FARM PARK,NEW FARM,MAINS POWER,2,153.0533715,-27.47004593
500491.5353,6972020.315,165,200477432,BBQ - WOOD SINGLE,BARBEQUE,B-RE-2184-N001,D1186,MARTINDALE STREET PARK,CHERMSIDE WEST,WOOD FIRED,1,153.0049708,-27.37507786
499236.6003,6960343.052,166,200501719,BBQ - ELECTRIC SINGLE,BARBEQUE,B-RE-1370-N003,D0471,TOOWONG MEMORIAL PARK,TOOWONG,MAINS POWER,1,152.9922725,-27.48050058
494854.0225,6958969.941,167,200477865,BBQ - WOOD SINGLE,BARBEQUE,B-RE-2495-N003,D0864,MARMINDIE STREET PARK,CHAPEL HILL,WOOD FIRED,1,152.9479041,-27.49288744
497940.6508,6952423.432,168,200472683,BBQ - ELECTRIC SINGLE,BARBEQUE,B-RE-2008-N006,D0317,NIXON PARK,OXLEY,MAINS POWER,1,152.9791408,-27.551997
491914.4143,6951650.731,169,200472997,BBQ - ELECTRIC SINGLE,BARBEQUE,B-RE-1594-N001,D0650,JAMBOREE LIONS COMMUNITY PARK,MIDDLE PARK,MAINS POWER,1,152.9180957,-27.55895027
510278.5462,6975315.096,170,200501938,BBQ - ELECTRIC SINGLE,BARBEQUE,B-RE-1447-N009,D0438,NUDGEE BEACH RESERVE,NUDGEE BEACH,MAINS POWER,1,153.1039178,-27.34529357
508269.7407,6977864.858,171,200500844,BBQ - ELECTRIC DOUBLE,BARBEQUE,B-RE-1875-N012,D0276,SANDGATE FORESHORES PARK,SANDGATE,MAINS POWER,2,153.0835912,-27.32228756
508335.4029,6977742.799,172,200500848,BBQ - ELECTRIC DOUBLE,BARBEQUE,B-RE-1875-N026,D0276,SANDGATE FORESHORES PARK,SANDGATE,MAINS POWER,2,153.0842557,-27.32338913
503780.5892,6945242.768,173,200484060,BBQ - ELECTRIC SINGLE,BARBEQUE,B-RE-0029-N003,D0956,BUNDABAH DRIVE PARK,CALAMVALE,MAINS POWER,1,153.0383162,-27.61681916
505631.2027,6941235.486,174,200488910,BBQ - ELECTRIC SINGLE,BARBEQUE,B-RE-0167-N001,D2009,MACQUARIE WAY PARK (NO.123),DREWVALE,MAINS POWER,1,153.0570909,-27.65298953
501657.5294,6949554.151,175,200488913,BBQ - ELECTRIC SINGLE,BARBEQUE,B-RE-1629-N010,D0563,MORTIMER ROAD PARK,ACACIA RIDGE,MAINS POWER,1,153.0167931,-27.57790103
504920.7272,6972114.264,176,100119620,BBQ - ELECTRIC SINGLE,BARBEQUE,B-RE-1988-N004,D0244,BOWDEN PARK,GEEBUNG,MAINS POWER,1,153.0497623,-27.37422089
499258.8064,6955636.06,177,200482666,BBQ - WOOD SINGLE,BARBEQUE,B-RE-2399-N007,D0824,GRACEVILLE RIVERSIDE PARKLANDS,GRACEVILLE,WOOD FIRED,1,152.9924944,-27.52299507
500276.9177,6968553.921,178,200482688,BBQ - ELECTRIC DOUBLE,BARBEQUE,B-RE-1715-N002,D0206,BOLES STREET PARK,STAFFORD,MAINS POWER,2,153.0028012,-27.40637284
503131.83,6943493.941,179,200471405,BBQ - ELECTRIC SINGLE,BARBEQUE,B-RE-2176-N001,D1194,SPRINGFIELD CRESCENT PARK,PARKINSON,MAINS POWER,1,153.0317456,-27.63260886
495479.0103,6964302.366,180,200489036,BBQ - ELECTRIC SINGLE,BARBEQUE,B-RE-1738-N004,D0160,WALTON BRIDGE RESERVE,THE GAP,MAINS POWER,1,152.9542511,-27.4447486
509417.27,6962429.168,181,200484788,BBQ - ELECTRIC SINGLE,BARBEQUE,B-RE-0698-N001,D1815,CARNARVON WAY PARK,MURARRIE,MAINS POWER,1,153.0953099,-27.46163475
518280.5143,6961515.623,182,100125831,BBQ - ELECTRIC SINGLE,BARBEQUE,B-RE-1423-N006,D0534,COX PARK,LOTA,MAINS POWER,1,153.1850261,-27.46979192
504115.0263,6950827.686,183,200486548,BBQ - ELECTRIC SINGLE,BARBEQUE,B-RE-1584-N007,D0730,BERYL ROBERTS PARK,COOPERS PLAINS,MAINS POWER,1,153.0416867,-27.5663985
501848.6577,6966586.148,184,200478510,BBQ - ELECTRIC SINGLE,BARBEQUE,B-RE-0017-N002,D0498,LANHAM PARK,GRANGE,MAINS POWER,1,153.0187035,-27.42413679
508270.5247,6955103.958,185,100083817,BBQ - WOOD SINGLE,BARBEQUE,B-RE-1851-N002,D0059,CHESTER PARK RESERVE,MOUNT GRAVATT EAST,WOOD FIRED,1,153.083754,-27.52777382
502736.1898,6970568.625,186,200477556,BBQ - ELECTRIC SINGLE,BARBEQUE,B-RE-2003-N003,D0229,JOHN PATTERSON PARK,CHERMSIDE,MAINS POWER,1,153.027674,-27.38818121
508476.2907,6964295.626,187,100086027,BBQ - ELECTRIC DOUBLE,BARBEQUE,B-RE-1155-N002,D3712,NORTHSHORE RIVERSIDE PARK,HAMILTON,MAINS POWER,2,153.0857734,-27.44479055
508455.1438,6964278.283,188,100086028,BBQ - ELECTRIC SINGLE,BARBEQUE,B-RE-1155-N002,D3712,NORTHSHORE RIVERSIDE PARK,HAMILTON,MAINS POWER,1,153.0855596,-27.44494726
499941.9659,6961625.524,189,100086066,BBQ - ELECTRIC DOUBLE,BARBEQUE,B-RE-0416-N009,D1723,FREW PARK,MILTON,MAINS POWER,2,152.9994126,-27.46892266
502234.3092,6955832.221,190,200558942,BBQ - ELECTRIC DOUBLE,BARBEQUE,B-RE-1453-N008,D0389,YERONGA MEMORIAL PARK,YERONGA,MAINS POWER,2,153.0226251,-27.52122251
498172.6367,6960515.743,191,100104043,BBQ - WOOD SINGLE,BARBEQUE,B-RE-1373-N004,D0467,ANZAC PARK,MOUNT COOT-THA,WOOD FIRED,1,152.9815028,-27.47894051
502442.1607,6976264.764,192,100108300,BBQ - ELECTRIC SINGLE,BARBEQUE,B-RE-2722-N002,D2165,CAPE ARID PARK,FITZGIBBON,MAINS POWER,1,153.0246888,-27.33675629
497500.4699,6958202.686,193,100108591,BBQ - ELECTRIC SINGLE,BARBEQUE,B-RE-1807-N003,D0015,KEATING PARK,INDOOROOPILLY,MAINS POWER,1,152.9746941,-27.49982164
496315.7493,6944874.639,194,100280021,BBQ - ELECTRIC SINGLE,BARBEQUE,B-RE-2099-N014,D1279,THE LAKE PARKLANDS,FOREST LAKE,MAINS POWER,1,152.962659,-27.62014282
496097.6367,6958156.735,195,200472843,BBQ - WOOD SINGLE,BARBEQUE,B-RE-2388-N004,D0910,CLARINA STREET PARK,CHAPEL HILL,WOOD FIRED,1,152.9604914,-27.50023317
495948.9561,6961940.912,196,100270380,BBQ - GAS DOUBLE (SOLAR IGNITION),BARBEQUE,B-RE-1901-N008,D0249,MT COOT-THA RESERVE,MOUNT COOT-THA,BOTTLED GAS,2,152.9589987,-27.4660693
508350.5809,6964717.663,197,100271053,BBQ - ELECTRIC DOUBLE,BARBEQUE,B-RE-1152-N002,D3754,OLD SHORELINE PARK,HAMILTON,MAINS POWER,2,153.0844984,-27.44098118
503583.9548,6962032.223,198,100275138,BBQ - ELECTRIC DOUBLE,BARBEQUE,B-RE-1837-N003,D0075,CAPTAIN BURKE PARK,KANGAROO POINT,MAINS POWER,2,153.0362735,-27.46524626
506449.7747,6974640.607,199,100280023,BBQ - ELECTRIC DOUBLE,BARBEQUE,B-RE-1992-N002,D0240,DONNA PHILP PARK,BOONDALL,MAINS POWER,2,153.0652119,-27.35140639
502011.439,6943019.698,200,100280862,BBQ - ELECTRIC DOUBLE,BARBEQUE,B-RE-0508-N004,D1617,GREENWAYS ESPLANADE PARK,PARKINSON,MAINS POWER,2,153.0203896,-27.63689235
497853.781,6952371.409,201,100290094,BBQ - ELECTRIC DOUBLE,BARBEQUE,B-RE-2008-N003,D0317,NIXON PARK,OXLEY,MAINS POWER,2,152.9782608,-27.55246652
501704.1191,6946255.386,202,100290201,BBQ - ELECTRIC DOUBLE,BARBEQUE,B-RE-2860-N004,D2250,WHISTLER PLACE PARK,PALLARA,MAINS POWER,2,153.0172698,-27.60768166
506871.9486,6964927.225,203,100290211,BBQ - ELECTRIC DOUBLE,BARBEQUE,B-RE-1542-N005,D0699,HERCULES STREET PARK,HAMILTON,MAINS POWER,2,153.0695352,-27.43909752
498988.1527,6955006.695,204,200480668,BBQ - WOOD SINGLE,BARBEQUE,B-RE-2019-N001,D0304,STRICKLAND TERRACE PARK,SHERWOOD,WOOD FIRED,1,152.9897531,-27.52867675
500336.4454,6941465.177,205,100296488,BBQ - GAS DOUBLE,BARBEQUE,B-RE-2900-N004,D2274,WARRIL PARKLAND,LARAPINTA,BOTTLED GAS,2,153.0034109,-27.65092766
510260.9636,6951968.877,206,100301993,BBQ - ELECTRIC SINGLE,BARBEQUE,B-RE-0034-N001,D1123,MINDONA ROTARY PARK,WISHART,MAINS POWER,1,153.1039374,-27.55606336
502305.0849,6957268.715,207,200488686,BBQ - ELECTRIC SINGLE,BARBEQUE,B-RE-1799-N002,D0023,ROBINSON PARK (FAIRFIELD),FAIRFIELD,MAINS POWER,1,153.023339,-27.50825382
504138.1188,6963928.949,208,200482137,BBQ - ELECTRIC SINGLE,BARBEQUE,B-RE-0073-N002,D2024,COWLISHAW STREET PARK,BOWEN HILLS,MAINS POWER,1,153.0418758,-27.44812103
496433.5445,6943815.325,209,200487324,BBQ - ELECTRIC SINGLE,BARBEQUE,B-RE-0168-N002,D2008,CASCADE DRIVE PARK (NO.25),FOREST LAKE,MAINS POWER,1,152.9638498,-27.62970639
494679.7784,6944423.837,210,100282046,BBQ - ELECTRIC SINGLE,BARBEQUE,B-RE-0120-N001,D2015,ROXWELL STREET PARK,FOREST LAKE,MAINS POWER,1,152.946076,-27.62420711
499919.0263,6961925.229,211,200488790,BBQ - ELECTRIC SINGLE,BARBEQUE,B-RE-1376-N004,D0478,GREGORY PARK,MILTON,MAINS POWER,1,152.9991805,-27.46621692
498562.4195,6972528.452,212,100119643,BBQ - ELECTRIC SINGLE,BARBEQUE,B-RE-2068-N003,D1159,SOLAR PARK,BRIDGEMAN DOWNS,MAINS POWER,1,152.9854625,-27.37048967
492420.576,6955861.773,213,200482220,BBQ - ELECTRIC SINGLE,BARBEQUE,B-RE-1883-N006,D0267,THE RAFTING GROUND PARK,BROOKFIELD,MAINS POWER,1,152.9232494,-27.52093638
504139.5503,6954072.844,214,100266854,BBQ - ELECTRIC DOUBLE,BARBEQUE,B-RE-1416-N015,D0545,TOOHEY FOREST PARK,NATHAN,MAINS POWER,2,153.041924,-27.53710152
503425.5232,6971873.378,215,200482320,BBQ - ELECTRIC SINGLE,BARBEQUE,B-RE-2004-N032,D0228,7TH BRIGADE PARK,CHERMSIDE,MAINS POWER,1,153.0346423,-27.37640021
501020.9933,6962387.908,216,100275139,BBQ - ELECTRIC SINGLE,BARBEQUE,B-RE-1974-N001,D0174,NEAL MACROSSAN PLAYGROUND PARK,PADDINGTON,MAINS POWER,1,153.0103333,-27.46203947
491552.4628,6957664.627,217,200500349,BBQ - ELECTRIC SINGLE,BARBEQUE,B-RE-2051-N004,D1230,BOYD TERRACE PARK,BROOKFIELD,MAINS POWER,1,152.9144713,-27.50465522
505685.7823,6969080.123,218,200501252,BBQ - ELECTRIC SINGLE,BARBEQUE,B-RE-1397-N010,D0449,BOYD PARK,NUNDAH,MAINS POWER,1,153.0575133,-27.40161042
505672.0351,6960710.624,219,100308280,BBQ - ELECTRIC DOUBLE,BARBEQUE,B-RE-1780-N003,D0046,WILSON PARK,NORMAN PARK,MAINS POWER,2,153.0574133,-27.47717052
511022.6508,6952312.366,220,100267930,BBQ - ELECTRIC DOUBLE,BARBEQUE,B-RE-1490-N002,D0435,BOORABBIN PICNIC GROUND,WISHART,MAINS POWER,2,153.1116497,-27.5529564
498976.7529,6962004.145,221,100113839,BBQ - ELECTRIC SINGLE,BARBEQUE,B-RE-1374-N001,D0466,NORMAN BUCHAN PARK,BARDON,MAINS POWER,1,152.9896436,-27.46550408
517500.8051,6961484.203,222,200471598,BBQ - WOOD SINGLE,BARBEQUE,B-RE-1422-N004,D0536,HERBERT STREET PARK,LOTA,WOOD FIRED,1,153.1771347,-27.47008584
502875.2959,6943081.6,223,200480202,BBQ - ELECTRIC SINGLE,BARBEQUE,B-RE-0417-N002,D1722,ALGESTER ROAD PARK (NO.515),PARKINSON,MAINS POWER,1,153.0291462,-27.63633195
514004.9239,6970230.119,224,200478761,BBQ - WOOD SINGLE,BARBEQUE,B-RE-1390-N003,D0458,MYRTLETOWN RESERVE,PINKENBA,WOOD FIRED,1,153.1416504,-27.39116811
500570.3919,6964374.185,225,200483227,BBQ - ELECTRIC SINGLE,BARBEQUE,B-RE-1954-N002,D0197,BANCROFT PARK,KELVIN GROVE,MAINS POWER,1,153.0057719,-27.44410761
510096.1383,6975441.311,226,200483613,BBQ - ELECTRIC DOUBLE,BARBEQUE,B-RE-1447-N014,D0438,NUDGEE BEACH RESERVE,NUDGEE BEACH,MAINS POWER,2,153.1020725,-27.34415544
507435.0214,6949920.728,227,200488566,BBQ - ELECTRIC SINGLE,BARBEQUE,B-RE-1613-N001,D0664,YIMBUN PARK,SUNNYBANK,MAINS POWER,1,153.0753249,-27.57457222
516129.9849,6959612.773,228,100294942,BBQ - ELECTRIC SINGLE,BARBEQUE,B-RE-0352-N001,D2232,SHERIFF PARK,WAKERLEY,MAINS POWER,1,153.1632849,-27.48699795
500124.5694,6959296.333,229,200470583,BBQ - ELECTRIC SINGLE,BARBEQUE,B-RE-1908-N003,D0346,ORLEIGH PARK,WEST END,MAINS POWER,1,153.0012611,-27.48995053
509073.3932,6963729.806,230,200513560,BBQ - ELECTRIC SINGLE,BARBEQUE,B-RE-0572-N002,D1763,COLMSLIE BEACH RESERVE,MURARRIE,MAINS POWER,1,153.0918199,-27.44989494
509033.4081,6963714.316,231,200513566,BBQ - ELECTRIC SINGLE,BARBEQUE,B-RE-0572-N002,D1763,COLMSLIE BEACH RESERVE,MURARRIE,MAINS POWER,1,153.0914153,-27.45003504
505502.7988,6979209.541,232,200474099,BBQ - WOOD SINGLE,BARBEQUE,B-RE-1871-N005,D0281,SANDGATE THIRD LAGOON RESERVE,BRIGHTON,WOOD FIRED,1,153.0556167,-27.31016144
514477.102,6962877.724,233,200524053,BBQ - ELECTRIC DOUBLE,BARBEQUE,B-RE-1676-N002,D0658,KIANAWAH ROAD PARK (NO.330),WYNNUM WEST,MAINS POWER,2,153.1465137,-27.45754075
496782.2921,6963796.876,234,100119615,BBQ - ELECTRIC DOUBLE,BARBEQUE,B-RE-2537-N001,D1095,WILCANNIA PARK,ASHGROVE,MAINS POWER,2,152.967438,-27.44931588
503431.5344,6960664.593,235,200524567,BBQ - ELECTRIC SINGLE,BARBEQUE,B-RE-1557-N008,D0680,KANGAROO POINT CLIFFS PARK,KANGAROO POINT,MAINS POWER,1,153.0347347,-27.47759359
514481.6376,6962859.063,236,200524061,BBQ - ELECTRIC DOUBLE,BARBEQUE,B-RE-1676-N002,D0658,KIANAWAH ROAD PARK (NO.330),WYNNUM WEST,MAINS POWER,2,153.1465599,-27.45770916
503319.3754,6960400.989,237,200524089,BBQ - ELECTRIC SINGLE,BARBEQUE,B-RE-1557-N009,D0680,KANGAROO POINT CLIFFS PARK,KANGAROO POINT,MAINS POWER,1,153.0336002,-27.47997368
501628.3611,6961539.157,238,200524470,BBQ - ELECTRIC DOUBLE,BARBEQUE,B-RE-2061-N004,D1263,KURILPA POINT PARK,SOUTH BRISBANE,MAINS POWER,2,153.0164814,-27.4697014
489495.2553,6951380.139,239,200525330,BBQ - WOOD SINGLE,BARBEQUE,B-RE-1671-N010,D0663,BOOKER PLACE PARK,BELLBOWRIE,WOOD FIRED,1,152.8935881,-27.56137654
496349.623,6953405.764,240,200527818,BBQ - ELECTRIC DOUBLE,BARBEQUE,B-RE-0673-N014,D1845,ROCKS RIVERSIDE PARK,SEVENTEEN MILE ROCKS,MAINS POWER,2,152.9630282,-27.54312526
492421.125,6968121.302,241,200526971,BBQ - ELECTRIC DOUBLE,BARBEQUE,B-RE-1748-N003,D0150,UPPER KEDRON RECREATION RESERVE,UPPER KEDRON,MAINS POWER,2,152.9233316,-27.41025751
504173.6527,6965056.698,242,200474594,BBQ - ELECTRIC SINGLE,BARBEQUE,B-RE-1978-N006,D0170,YOWOGGERA  PARK,ALBION,MAINS POWER,1,153.0422315,-27.43793958
506490.618,6978630.779,243,200532177,BBQ - ELECTRIC DOUBLE,BARBEQUE,B-RE-1869-N007,D0284,SANDGATE SECOND LAGOON RESERVE,SANDGATE,MAINS POWER,2,153.0656036,-27.31538228
496568.0611,6961018.602,244,100264662,BBQ - GAS DOUBLE (SOLAR IGNITION),BARBEQUE,B-RE-1901-N034,D0249,MT COOT-THA RESERVE,MOUNT COOT-THA,BOTTLED GAS,2,152.9652622,-27.47439761
491572.3032,6952587.605,245,100294943,BBQ - ELECTRIC SINGLE,BARBEQUE,B-RE-0154-N002,D1936,SEABROOK CIRCUIT PARK,WESTLAKE,MAINS POWER,1,152.9146368,-27.55049021
510459.6236,6974661.049,246,200470303,BBQ - ELECTRIC SINGLE,BARBEQUE,B-RE-2060-N008,D1264,TUCKEROO PARK,NUDGEE BEACH,MAINS POWER,1,153.1057541,-27.35119702
496572.2169,6953019.076,247,200541702,BBQ - ELECTRIC SINGLE,BARBEQUE,B-RE-0283-N004,D2176,FORT ROAD BUSHLANDS,OXLEY,MAINS POWER,1,152.9652816,-27.54661682
500680.2348,6968101.364,248,200548901,BBQ - ELECTRIC SINGLE,BARBEQUE,B-RE-1714-N005,D0205,ROY HARVEY PARK,STAFFORD,MAINS POWER,1,153.0068813,-27.41045841
498718.1828,6942971.084,249,200551902,BBQ - ELECTRIC SINGLE,BARBEQUE,B-RE-1129-N003,D3054,HEATHWOOD PARK,HEATHWOOD,MAINS POWER,1,152.9870064,-27.63733211
500526.6132,6962335.306,250,200556309,BBQ - ELECTRIC DOUBLE,BARBEQUE,B-RE-0321-N001,D2112,BEDGOOD PARK,MILTON,MAINS POWER,2,153.0053298,-27.46251464
505057.5067,6968633.444,251,200556814,BBQ - ELECTRIC DOUBLE,BARBEQUE,B-RE-1387-N009,D0463,KALINGA PARK,CLAYFIELD,MAINS POWER,2,153.05116,-27.40564555
505076.7525,6968614.088,252,200556815,BBQ - ELECTRIC DOUBLE,BARBEQUE,B-RE-1387-N009,D0463,KALINGA PARK,CLAYFIELD,MAINS POWER,2,153.0513547,-27.40582022
505117.8101,6961375.746,253,200560667,BBQ - ELECTRIC DOUBLE,BARBEQUE,B-RE-1736-N017,D0095,NEW FARM PARK,NEW FARM,MAINS POWER,2,153.0518006,-27.47116802
502449.3708,6958643.431,254,200560305,BBQ - ELECTRIC DOUBLE,BARBEQUE,B-RE-1487-N002,D0355,DUTTON PARK,DUTTON PARK,MAINS POWER,2,153.0247971,-27.4958427
506782.3154,6967141.956,255,200561185,BBQ - ELECTRIC SINGLE,BARBEQUE,B-RE-1803-N001,D0019,THE BEIRNE PARK,HENDRA,MAINS POWER,1,153.0686158,-27.41910329
499398.5817,6955541.309,256,200559339,BBQ - WOOD SINGLE,BARBEQUE,B-RE-2399-N005,D0824,GRACEVILLE RIVERSIDE PARKLANDS,GRACEVILLE,WOOD FIRED,1,152.9939098,-27.52385054
505285.8595,6961515.38,257,200570336,BBQ - ELECTRIC DOUBLE,BARBEQUE,B-RE-1736-N018,D0095,NEW FARM PARK,NEW FARM,MAINS POWER,2,153.0535009,-27.46990676
502041.378,6975336.867,258,200500752,BBQ - ELECTRIC DOUBLE,BARBEQUE,B-RE-2549-N001,D1082,MATISSE STREET PARK,CARSELDINE,MAINS POWER,2,153.0206386,-27.34513416
503245.4274,6980363.409,259,200504350,BBQ - ELECTRIC SINGLE,BARBEQUE,B-RE-2317-N011,D1252,TINCHI TAMBA WETLANDS RESERVE,BALD HILLS,MAINS POWER,1,153.0327984,-27.2997513
501889.5138,6949372.471,260,200488976,BBQ - ELECTRIC SINGLE,BARBEQUE,B-RE-1624-N004,D0568,GRENIER PARK,ACACIA RIDGE,MAINS POWER,1,153.0191437,-27.5795409
510057.4661,6946679.201,261,200479592,BBQ - ELECTRIC SINGLE,BARBEQUE,B-RE-2257-N001,D1523,KING STREET PARK,KURABY,MAINS POWER,1,153.1019202,-27.60381919
500474.9942,6957324.066,262,200470343,BBQ - WOOD SINGLE,BARBEQUE,B-RE-1817-N002,D0004,JACARANDA PARK,YERONGA,WOOD FIRED,1,153.0048093,-27.50775599
504934.8656,6975193.514,263,200570419,BBQ - ELECTRIC SINGLE,BARBEQUE,B-RE-2135-N003,D1135,HAYWAL STREET PARK,TAIGUM,MAINS POWER,1,153.0498928,-27.34642098
484269.6921,6953353.106,264,100086071,BBQ - ELECTRIC DOUBLE,BARBEQUE,B-RE-0610-N002,D1886,KOOKABURRA PARK - WEST,KARANA DOWNS,MAINS POWER,2,152.8406796,-27.54351426
502148.4245,6968208.719,265,200559948,BBQ - ELECTRIC SINGLE,BARBEQUE,B-RE-1798-N006,D0024,KEITH PAYNE PARK,STAFFORD,MAINS POWER,1,153.0217335,-27.40948768
500036.5296,6961586.992,266,100086067,BBQ - ELECTRIC DOUBLE,BARBEQUE,B-RE-0416-N006,D1723,FREW PARK,MILTON,MAINS POWER,2,153.0003697,-27.46927052
503784.4414,6944792.705,267,100085485,BBQ - ELECTRIC DOUBLE,BARBEQUE,B-RE-0312-N004,D2072,CALAMVALE DISTRICT PARK,CALAMVALE,MAINS POWER,2,153.0383567,-27.62088222
518993.4007,6961887.769,268,200524107,BBQ - ELECTRIC DOUBLE,BARBEQUE,B-RE-1426-N010,D0530,LOTA CAMPING RESERVE,LOTA,MAINS POWER,2,153.1922357,-27.46642244
500800.0865,6956230.453,269,200471656,BBQ - WOOD SINGLE,BARBEQUE,B-RE-1511-N001,D0420,SIR JOHN CHANDLER PARK,INDOOROOPILLY,WOOD FIRED,1,153.0081016,-27.5176289
502416.8353,6976249.096,270,100108301,BBQ - ELECTRIC SINGLE,BARBEQUE,B-RE-2722-N002,D2165,CAPE ARID PARK,FITZGIBBON,MAINS POWER,1,153.0244328,-27.33689779
496342.1969,6961982.452,271,100109883,BBQ - GAS DOUBLE (SOLAR IGNITION),BARBEQUE,B-RE-1901-N002,D0249,MT COOT-THA RESERVE,MOUNT COOT-THA,BOTTLED GAS,2,152.9629789,-27.46569539
501647.7855,6947991.304,272,100116115,BBQ - ELECTRIC SINGLE,BARBEQUE,B-RE-2592-N002,D1061,GEMSTONE CRESCENT PARK,ACACIA RIDGE,MAINS POWER,1,153.0166965,-27.59201017
501377.5765,6975807.3,273,100125380,BBQ - ELECTRIC SINGLE,BARBEQUE,B-RE-0217-N004,D2158,MACARANGA CRESCENT PARK,CARSELDINE,MAINS POWER,1,153.013927,-27.34088784
497690.6507,6953366.622,274,100133682,BBQ - ELECTRIC SINGLE,BARBEQUE,B-RE-2812-N001,D2221,MONTROSE PARK,CORINDA,MAINS POWER,1,152.9766103,-27.54348158
503544.297,6970431.365,275,100125292,BBQ - ELECTRIC SINGLE,BARBEQUE,B-RE-2001-N010,D0231,BURNIE BRAE PARK,CHERMSIDE,MAINS POWER,1,153.0358476,-27.38941855
511202.4154,6950248.409,276,100125878,BBQ - ELECTRIC SINGLE,BARBEQUE,B-RE-0269-N002,D3316,STRAWBERRY FIELDS PLACE,ROCHEDALE,MAINS POWER,1,153.1134897,-27.57158802
501669.5615,6960509.462,277,100135313,BBQ - ELECTRIC DOUBLE,BARBEQUE,B-RE-1905-N013,D0350,MUSGRAVE PARK,SOUTH BRISBANE,MAINS POWER,2,153.0168999,-27.47899742
504113.2639,6954086.537,278,200482251,BBQ - ELECTRIC SINGLE,BARBEQUE,B-RE-1416-N015,D0545,TOOHEY FOREST PARK,NATHAN,MAINS POWER,1,153.0416577,-27.53697799
504335.2358,6950110.35,279,100289587,BBQ - ELECTRIC DOUBLE,BARBEQUE,B-RE-2875-N003,D2259,MCKOY STREET PARK,COOPERS PLAINS,MAINS POWER,2,153.04392,-27.57287382
504206.3459,6977888.48,280,100119642,BBQ - ELECTRIC DOUBLE,BARBEQUE,B-RE-1609-N008,D0635,MCPHERSON PARK,BRACKEN RIDGE,MAINS POWER,2,153.042518,-27.32209282
503879.7198,6955490.598,281,200486467,BBQ - WOOD SINGLE,BARBEQUE,B-RE-1525-N002,D0400,TARRAGINDI RECREATION RESERVE,TARRAGINDI,WOOD FIRED,1,153.0392879,-27.52430294
501126.9014,6946070.381,282,100290199,BBQ - ELECTRIC DOUBLE,BARBEQUE,B-RE-0386-N008,D1676,PALLARA PARK,PALLARA,MAINS POWER,2,153.0114204,-27.60935246
511238.2773,6960132.975,283,100290204,BBQ - GAS DOUBLE (SOLAR IGNITION),BARBEQUE,B-RE-1408-N014,D0594,PORTER'S PADDOCK PARK,TINGALPA,BOTTLED GAS,2,153.1137611,-27.48235088
506940.4858,6964987.879,284,100290212,BBQ - ELECTRIC DOUBLE,BARBEQUE,B-RE-1542-N005,D0699,HERCULES STREET PARK,HAMILTON,MAINS POWER,2,153.0702283,-27.43854958
498128.3531,6960425.37,285,100290214,BBQ - ELECTRIC SINGLE,BARBEQUE,B-RE-1373-N002,D0467,ANZAC PARK,MOUNT COOT-THA,MAINS POWER,1,152.9810544,-27.47975634
500838.5835,6956210.107,286,200472067,BBQ - WOOD SINGLE,BARBEQUE,B-RE-1511-N001,D0420,SIR JOHN CHANDLER PARK,INDOOROOPILLY,WOOD FIRED,1,153.0084914,-27.51781256
497013.2018,6961728.437,287,200536450,BBQ - WOOD SINGLE,BARBEQUE,B-RE-1901-N013,D0249,MT COOT-THA RESERVE,MOUNT COOT-THA,WOOD FIRED,1,152.9697696,-27.46799028
497636.4748,6948160.392,288,100292254,BBQ - GAS SINGLE,BARBEQUE,B-RE-1625-N013,D0567,KEV HOOPER MEMORIAL PARK,INALA,BOTTLED GAS,1,152.9760514,-27.59048261
500442.0314,6941370.616,289,100296434,BBQ - GAS DOUBLE,BARBEQUE,B-RE-2900-N003,D2274,WARRIL PARKLAND,LARAPINTA,BOTTLED GAS,2,153.0044814,-27.6517813
495729.9815,6947701.083,290,100312623,BBQ - ELECTRIC DOUBLE,BARBEQUE,B-RE-1120-N003,D3117,KATHLEEN STREET PARK,RICHLANDS,MAINS POWER,2,152.9567321,-27.5946245
500079.9197,6967307.112,291,100405320,BBQ - ELECTRIC DOUBLE,BARBEQUE,B-RE-1739-N010,D0159,GRINSTEAD PARK,ALDERLEY,MAINS POWER,2,153.0008085,-27.41762914
496629.626,6949374.96,292,200487209,BBQ - ELECTRIC SINGLE,BARBEQUE,B-RE-1628-N003,D0564,C.J.GREENFIELD COMPLEX PARK,RICHLANDS,MAINS POWER,1,152.9658529,-27.57951555
497364.3649,6954622.966,293,200488740,BBQ - ELECTRIC DOUBLE,BARBEQUE,B-RE-2018-N015,D0305,SHERWOOD ARBORETUM,SHERWOOD,MAINS POWER,2,152.9733084,-27.53213884
502614.5062,6957760.153,294,200482132,BBQ - ELECTRIC DOUBLE,BARBEQUE,B-RE-1467-N002,D0375,FAIRFIELD PARK,FAIRFIELD,MAINS POWER,2,153.0264709,-27.50381659
503035.3621,6942536.471,295,200484098,BBQ - ELECTRIC SINGLE,BARBEQUE,B-RE-0170-N002,D2005,DAINTREE DRIVE PARK (NO.65),PARKINSON,MAINS POWER,1,153.0307702,-27.6412529
497693.2751,6962977.735,296,200488802,BBQ - ELECTRIC DOUBLE,BARBEQUE,B-RE-1970-N011,D0178,BOWMAN PARK,BARDON,MAINS POWER,2,152.9766552,-27.45671294
498233.5342,6970243.077,297,200471222,BBQ - ELECTRIC SINGLE,BARBEQUE,B-RE-0037-N002,D0948,SOAMES STREET PARK,EVERTON PARK,MAINS POWER,1,152.9821334,-27.39112189
508424.9296,6977594.388,298,200482256,BBQ - ELECTRIC DOUBLE,BARBEQUE,B-RE-1865-N002,D0288,MOORA PARK,SHORNCLIFFE,MAINS POWER,2,153.0851617,-27.32472846
498385.0436,6943149.325,299,100294936,BBQ - ELECTRIC DOUBLE,BARBEQUE,B-RE-0205-N001,D2171,SANCTUARY DRIVE PARK,FOREST LAKE,MAINS POWER,2,152.9836296,-27.63572264
494429.4875,6962127.728,300,200479280,BBQ - WOOD SINGLE,BARBEQUE,B-RE-1901-N011,D0249,MT COOT-THA RESERVE,MOUNT COOT-THA,WOOD FIRED,1,152.9436208,-27.46437735
501268.3681,6971605.289,301,200482294,BBQ - ELECTRIC SINGLE,BARBEQUE,B-RE-1672-N008,D0662,JOHN GOSS RESERVE,CHERMSIDE WEST,MAINS POWER,1,153.0128273,-27.37882425
505833.3185,6973604.606,302,200500326,BBQ - ELECTRIC SINGLE,BARBEQUE,B-RE-1587-N001,D0727,FRANK SLEEMAN PARK,BOONDALL,MAINS POWER,1,153.058984,-27.36076231
505303.0455,6963273.177,303,200510384,BBQ - ELECTRIC DOUBLE,BARBEQUE,B-RE-0233-N006,D2672,BULIMBA RIVERSIDE PARK,BULIMBA,MAINS POWER,2,153.0536672,-27.4540373
510004.5491,6975488.12,304,200488260,BBQ - ELECTRIC DOUBLE,BARBEQUE,B-RE-1447-N001,D0438,NUDGEE BEACH RESERVE,NUDGEE BEACH,MAINS POWER,2,153.1011462,-27.34373352
506372.7687,6981916.446,305,200488263,BBQ - ELECTRIC SINGLE,BARBEQUE,B-RE-1876-N007,D0275,DECKER PARK,BRIGHTON,MAINS POWER,1,153.0643953,-27.28571917
494978.846,6952838.948,306,200471952,BBQ - ELECTRIC SINGLE,BARBEQUE,B-RE-2546-N003,D1085,ROSEMOUNT PARK,SINNAMON PARK,MAINS POWER,1,152.9491423,-27.54823803
502803.7525,6962977.035,307,200480156,BBQ - ELECTRIC DOUBLE,BARBEQUE,B-RE-1838-N009,D0074,BEDFORD PLAYGROUND PARK,SPRING HILL,MAINS POWER,2,153.0283748,-27.45671832
499801.9512,6959339.638,308,200480282,BBQ - ELECTRIC SINGLE,BARBEQUE,B-RE-1908-N005,D0346,ORLEIGH PARK,WEST END,MAINS POWER,1,152.9979951,-27.48955957
495537.0033,6968257.699,309,200482041,BBQ - ELECTRIC SINGLE,BARBEQUE,B-RE-1657-N006,D0706,DASH STREET PARK,KEPERRA,MAINS POWER,1,152.9548525,-27.40903987
509738.4703,6950167.122,310,200488406,BBQ - ELECTRIC SINGLE,BARBEQUE,B-RE-2318-N002,D1251,BRAMPTON STREET PARK,EIGHT MILE PLAINS,MAINS POWER,1,153.0986594,-27.5723332
505038.2994,6973909.498,311,200482000,BBQ - ELECTRIC SINGLE,BARBEQUE,B-RE-2191-N001,D1178,LAMBERT MCBRIDE PARK,ZILLMERE,MAINS POWER,1,153.0509439,-27.35801287
501917.1924,6953754.863,312,200488448,BBQ - ELECTRIC DOUBLE,BARBEQUE,B-RE-0015-N002,D0541,TONKS STREET PARK,MOOROOKA,MAINS POWER,2,153.0194172,-27.53997719
504331.0189,6944945.085,313,200488548,BBQ - ELECTRIC SINGLE,BARBEQUE,B-RE-0473-N001,D1463,HAMISH STREET PARK,CALAMVALE,MAINS POWER,1,153.0438959,-27.61950493
500102.9137,6961422.287,314,200488604,BBQ - ELECTRIC SINGLE,BARBEQUE,B-RE-1375-N002,D0477,MILTON PARK,MILTON,MAINS POWER,1,153.0010417,-27.47075747
504521.8319,6965515.089,315,200472255,BBQ - ELECTRIC SINGLE,BARBEQUE,B-RE-1979-N003,D0169,CROSBY PARK,ALBION,MAINS POWER,1,153.0457529,-27.4338001
497853.1785,6966751.497,316,200472480,BBQ - ELECTRIC SINGLE,BARBEQUE,B-RE-0452-N001,D1534,BLISS STREET PARK (NO.39),GAYTHORNE,MAINS POWER,1,152.9782802,-27.42264357
480686.001,6953806.603,317,200504614,BBQ - ELECTRIC SINGLE,BARBEQUE,B-RE-0603-N006,D1893,STUMERS ROAD RESERVE,MOUNT CROSBY,MAINS POWER,1,152.8043905,-27.53937383
505392.4447,6979276.558,318,200503632,BBQ - WOOD SINGLE,BARBEQUE,B-RE-1871-N005,D0281,SANDGATE THIRD LAGOON RESERVE,BRIGHTON,WOOD FIRED,1,153.054501,-27.30955684
509781.0518,6963886.997,319,200513065,BBQ - ELECTRIC DOUBLE,BARBEQUE,B-RE-0305-N001,D2118,CAPTAIN DOUG HISLOP PARK,MURARRIE,MAINS POWER,2,153.0989799,-27.44847091
509340.463,6962185.446,320,200513260,BBQ - ELECTRIC SINGLE,BARBEQUE,B-RE-0158-N002,D1931,CALLIOPE CIRCUIT PARK,MURARRIE,MAINS POWER,1,153.0945344,-27.4638356
496936.143,6961651.541,321,100285234,BBQ - GAS DOUBLE,BARBEQUE,B-RE-1901-N013,D0249,MT COOT-THA RESERVE,MOUNT COOT-THA,BOTTLED GAS,2,152.9689895,-27.46868432
505703.0232,6956406.147,322,200524046,BBQ - ELECTRIC SINGLE,BARBEQUE,B-RE-1717-N005,D0119,C.B.MOTT PARK,HOLLAND PARK,MAINS POWER,1,153.0577473,-27.51603099
494049.5587,6945297.212,323,200474384,BBQ - ELECTRIC SINGLE,BARBEQUE,B-RE-2231-N005,D1356,CAROLE PARK COMMUNITY PARK,ELLEN GROVE,MAINS POWER,1,152.9396926,-27.61631984
506350.1955,6978742.395,324,200532193,BBQ - ELECTRIC DOUBLE,BARBEQUE,B-RE-1869-N001,D0284,SANDGATE SECOND LAGOON RESERVE,SANDGATE,MAINS POWER,2,153.0641837,-27.31437525
504493.1419,6960016.579,325,200475234,BBQ - ELECTRIC SINGLE,BARBEQUE,B-RE-1477-N003,D0365,WILLIAMINA PARK,EAST BRISBANE,MAINS POWER,1,153.0454829,-27.48344075
499397.8598,6943540.279,326,200535108,BBQ - ELECTRIC SINGLE,BARBEQUE,B-RE-0357-N002,D2190,BRUSH BOX PLACE PARK,HEATHWOOD,MAINS POWER,1,152.9938965,-27.63219403
496917.704,6961671.311,327,200536545,BBQ - WOOD SINGLE,BARBEQUE,B-RE-1901-N013,D0249,MT COOT-THA RESERVE,MOUNT COOT-THA,WOOD FIRED,1,152.9688029,-27.46850579
500657.7142,6973759.417,328,100294930,BBQ - ELECTRIC SINGLE,BARBEQUE,B-RE-2337-N004,D1414,TURRBAL PLACE PARK,ASPLEY,MAINS POWER,1,153.0066504,-27.35937697
500870.8909,6979651.78,329,100119644,BBQ - ELECTRIC SINGLE,BARBEQUE,B-RE-1674-N003,D0660,CANTERBURY PARK,BALD HILLS,MAINS POWER,1,153.0088018,-27.30617961
503188.5423,6967076.071,330,200545318,BBQ - ELECTRIC SINGLE,BARBEQUE,B-RE-1495-N005,D0509,BRADSHAW PARK,LUTWYCHE,MAINS POWER,1,153.0322583,-27.41971126
512448.7022,6960865.665,331,200549401,BBQ - WOOD SINGLE,BARBEQUE,B-RE-1785-N008,D0040,KIANAWAH PARK,TINGALPA,WOOD FIRED,1,153.1260063,-27.47572563
507078.7331,6950460.791,332,200475881,BBQ - ELECTRIC SINGLE,BARBEQUE,B-RE-1632-N001,D0559,D.M.HENDERSON PARK,MACGREGOR,MAINS POWER,1,153.0717122,-27.56969853
512672.9273,6959856.718,333,200476059,BBQ - WOOD SINGLE,BARBEQUE,B-RE-1407-N001,D0595,SHE-OAK PARK,TINGALPA,WOOD FIRED,1,153.1282864,-27.48483229
500122.3773,6958936.331,334,200476252,BBQ - WOOD SINGLE,BARBEQUE,B-RE-1936-N008,D0408,GUYATT PARK,ST LUCIA,WOOD FIRED,1,153.0012389,-27.49320061
501406.9642,6955995.347,335,200555385,BBQ - WOOD SINGLE,BARBEQUE,B-RE-1460-N003,D0382,ROWLINSON PARK,YERONGA,WOOD FIRED,1,153.014247,-27.51975093
504826.1129,6960272.589,336,200554082,BBQ - ELECTRIC DOUBLE,BARBEQUE,B-RE-1475-N004,D0367,REAL PARK,EAST BRISBANE,MAINS POWER,2,153.0488525,-27.48112835
505887.4264,6971119.837,337,100117734,BBQ - ELECTRIC DOUBLE,BARBEQUE,B-RE-1402-N006,D0443,DOWNFALL CREEK RESERVE,VIRGINIA,MAINS POWER,2,153.0595431,-27.38319485
492951.3905,6954749.128,338,200560926,BBQ - ELECTRIC DOUBLE,BARBEQUE,B-RE-1920-N010,D0338,JINDALEE BOAT RAMP PARK,JINDALEE,MAINS POWER,2,152.928618,-27.5309841
501758.1135,6957583.023,339,200560031,BBQ - ELECTRIC SINGLE,BARBEQUE,B-RE-1469-N001,D0373,JOHN WALKER PLACE,YERONGA,MAINS POWER,1,153.0178005,-27.50541708
504004.3501,6943166.401,340,100119548,BBQ - ELECTRIC SINGLE,BARBEQUE,B-RE-2331-N008,D1338,LAKEWOOD AVENUE PARK,PARKINSON,MAINS POWER,1,153.0405909,-27.63556351
503394.9783,6962012.299,341,100085057,BBQ - ELECTRIC DOUBLE,BARBEQUE,B-RE-1837-N008,D0075,CAPTAIN BURKE PARK,KANGAROO POINT,MAINS POWER,2,153.0343609,-27.46542661
495371.8143,6952706.891,342,200570221,BBQ - ELECTRIC SINGLE,BARBEQUE,B-RE-2350-N008,D1399,EDENBROOKE PARK,SEVENTEEN MILE ROCKS,MAINS POWER,1,152.9531221,-27.54943162
517413.4529,6964666.263,343,200502370,BBQ - ELECTRIC SINGLE,BARBEQUE,B-RE-2628-N007,D0995,WYNNUM WADING POOL PARK,WYNNUM,MAINS POWER,1,153.1762049,-27.44135944
507091.8656,6978478.749,344,200500840,BBQ - ELECTRIC DOUBLE,BARBEQUE,B-RE-1875-N019,D0276,SANDGATE FORESHORES PARK,SANDGATE,MAINS POWER,2,153.0716816,-27.31675185
504036.2933,6954163.395,345,200507075,BBQ - ELECTRIC SINGLE,BARBEQUE,B-RE-1416-N014,D0545,TOOHEY FOREST PARK,NATHAN,MAINS POWER,1,153.0408779,-27.53628435
503319.8517,6971676.755,346,200488957,BBQ - ELECTRIC DOUBLE,BARBEQUE,B-RE-2004-N018,D0228,7TH BRIGADE PARK,CHERMSIDE,MAINS POWER,2,153.0335742,-27.37817561
501677.0862,6949539.707,347,200488908,BBQ - ELECTRIC SINGLE,BARBEQUE,B-RE-1629-N010,D0563,MORTIMER ROAD PARK,ACACIA RIDGE,MAINS POWER,1,153.0169913,-27.57803141
498195.7136,6968099.63,348,200488921,BBQ - ELECTRIC SINGLE,BARBEQUE,B-RE-1642-N002,D0612,BELLEVUE AVENUE PARK,GAYTHORNE,MAINS POWER,1,152.9817477,-27.41047304
510393.2939,6957641.801,349,200488925,BBQ - ELECTRIC SINGLE,BARBEQUE,B-RE-2413-N002,D0856,SURBITON COURT PARK,CARINDALE,MAINS POWER,1,153.105229,-27.50484779
499969.1446,6956657.082,350,200482585,BBQ - WOOD SINGLE,BARBEQUE,B-RE-2638-N001,D0984,RON GOELDNER PARK,YERONGA,WOOD FIRED,1,152.9996876,-27.51377756
509681.6161,6946529.175,351,200482788,BBQ - ELECTRIC SINGLE,BARBEQUE,B-RE-0394-N010,D1551,SVOBODA PARK,KURABY,MAINS POWER,1,153.0981126,-27.60517634
502413.5261,6958515.246,352,100086090,BBQ - ELECTRIC DOUBLE,BARBEQUE,B-RE-1487-N012,D0355,DUTTON PARK,DUTTON PARK,MAINS POWER,2,153.0244345,-27.49700002
484098.0927,6953344.154,353,200479942,BBQ - ELECTRIC DOUBLE,BARBEQUE,B-RE-0610-N008,D1886,KOOKABURRA PARK - WEST,KARANA DOWNS,MAINS POWER,2,152.8389415,-27.54359308
503998.9514,6968697.859,354,200489462,BBQ - ELECTRIC SINGLE,BARBEQUE,B-RE-1615-N001,D0577,BENELONG PARK,KEDRON,MAINS POWER,1,153.0404518,-27.40506752
491862.6862,6968125.321,355,200529065,BBQ - ELECTRIC SINGLE,BARBEQUE,B-RE-2233-N001,D1354,SELKIRK CRESCENT PARK,UPPER KEDRON,MAINS POWER,1,152.9176824,-27.410218
504500.9101,6963918.436,356,100085934,BBQ - ELECTRIC DOUBLE,BARBEQUE,B-RE-1186-N003,D3192,WATERFRONT PARK,NEWSTEAD,MAINS POWER,2,153.0455471,-27.44821479
503486.2878,6960919.286,357,200536619,BBQ - ELECTRIC DOUBLE,BARBEQUE,B-RE-1557-N012,D0680,KANGAROO POINT CLIFFS PARK,KANGAROO POINT,MAINS POWER,2,153.0352882,-27.47529409
518989.9875,6961969.472,358,200471545,BBQ - ELECTRIC DOUBLE,BARBEQUE,B-RE-1426-N005,D0530,LOTA CAMPING RESERVE,LOTA,MAINS POWER,2,153.1921999,-27.46568487
497458.2157,6952710.364,359,100088980,BBQ - ELECTRIC SINGLE,BARBEQUE,B-RE-2010-N003,D0315,V.MCN.PEACHEY PARK,OXLEY,MAINS POWER,1,152.9742548,-27.54940579
499140.2428,6965205.931,360,100104229,BBQ - ELECTRIC SINGLE,BARBEQUE,B-RE-1986-N001,D0162,FRANK WATERS PARK,ASHGROVE,MAINS POWER,1,152.9913006,-27.43659843
504219.6203,6946931.361,361,100105354,BBQ - ELECTRIC SINGLE,BARBEQUE,B-RE-2083-N003,D1299,BENBEK CIRCUIT PARK,SUNNYBANK HILLS,MAINS POWER,1,153.0427599,-27.60157357
501735.06,6966525.915,362,100113695,BBQ - ELECTRIC DOUBLE,BARBEQUE,B-RE-0017-N015,D0498,LANHAM PARK,GRANGE,MAINS POWER,2,153.0175543,-27.42468072
511489.5324,6949918.79,363,100083528,BBQ - ELECTRIC DOUBLE,BARBEQUE,B-RE-1182-N004,D3293,PASK FAMILY PARK,ROCHEDALE,MAINS POWER,2,153.1164015,-27.57456137
504796.9698,6971437.518,364,100125287,BBQ - ELECTRIC SINGLE,BARBEQUE,B-RE-2458-N004,D0752,HEINRICH GERNS PARK,WAVELL HEIGHTS,MAINS POWER,1,153.0485134,-27.38033107
506917.4313,6955298.362,365,100123074,BBQ - ELECTRIC DOUBLE,BARBEQUE,B-RE-1846-N009,D0064,GLINDEMANN PARK,HOLLAND PARK WEST,MAINS POWER,2,153.0700504,-27.52602634
505710.0796,6978987.776,366,100124179,BBQ - ELECTRIC DOUBLE,BARBEQUE,B-RE-1871-N011,D0281,SANDGATE THIRD LAGOON RESERVE,BRIGHTON,MAINS POWER,2,153.0577127,-27.31216273
509062.8146,6973154.533,367,100124423,BBQ - ELECTRIC DOUBLE,BARBEQUE,B-RE-0478-N003,D1456,ST VINCENTS ROAD PARK,NUDGEE,MAINS POWER,2,153.0916426,-27.36480802
497281.5773,6951258.987,368,100125894,BBQ - ELECTRIC DOUBLE,BARBEQUE,B-RE-2005-N006,D0320,TOM O'NEIL PARK,OXLEY,MAINS POWER,2,152.9724624,-27.5625083
501103.7418,6960344.857,369,100132143,BBQ - ELECTRIC DOUBLE,BARBEQUE,B-RE-2746-N003,D2199,BUNYAPA PARK,WEST END,MAINS POWER,2,153.0111726,-27.48048404
505722.3753,6955091.145,370,100275310,BBQ - ELECTRIC SINGLE,BARBEQUE,B-RE-1940-N006,D0404,GIBSON PLACE PARK,HOLLAND PARK WEST,MAINS POWER,1,153.0579495,-27.52790264
490989.518,6954817.173,371,100280754,BBQ - ELECTRIC SINGLE,BARBEQUE,B-RE-0681-N003,D1835,MCCASKILL RD PARK,PULLENVALE,MAINS POWER,1,152.9087505,-27.53035817
506220.0568,6965906.403,372,100281834,BBQ - ELECTRIC DOUBLE,BARBEQUE,B-RE-1982-N008,D0166,ASCOT PARK,ASCOT,MAINS POWER,2,153.0629339,-27.43026061
506285.1611,6962137.81,373,100281887,BBQ - ELECTRIC DOUBLE,BARBEQUE,B-RE-1788-N004,D0037,HAWTHORNE PARK,HAWTHORNE,MAINS POWER,2,153.0636121,-27.46428322
494357.6552,6962083.305,374,100290224,BBQ - GAS DOUBLE (SOLAR IGNITION),BARBEQUE,B-RE-1901-N011,D0249,MT COOT-THA RESERVE,MOUNT COOT-THA,BOTTLED GAS,2,152.9428936,-27.4647781
504200.1417,6967761.23,375,100290225,BBQ - ELECTRIC SINGLE,BARBEQUE,B-RE-2705-N003,D2086,DALKEITH PARK,KALINGA,MAINS POWER,1,153.0424902,-27.41352287
494250.4455,6961523.841,376,200487647,BBQ - WOOD SINGLE,BARBEQUE,B-RE-1901-N010,D0249,MT COOT-THA RESERVE,MOUNT COOT-THA,WOOD FIRED,1,152.9418059,-27.46982849
492964.1459,6960531.981,377,200542959,BBQ - WOOD SINGLE,BARBEQUE,B-RE-1901-N037,D0249,MT COOT-THA RESERVE,MOUNT COOT-THA,WOOD FIRED,1,152.9287808,-27.47877693
496743.0267,6951350.109,378,200475079,BBQ - WOOD SINGLE,BARBEQUE,B-RE-1932-N004,D0324,RIKKI BAILEY PARK,OXLEY,WOOD FIRED,1,152.9670071,-27.56168447
497809.8857,6944246.491,379,100290236,BBQ - WOOD SINGLE,BARBEQUE,B-RE-0620-N001,D1810,PACIFIC PARADE PARK,FOREST LAKE,WOOD FIRED,1,152.9778014,-27.62581686
495926.5618,6961912.784,380,100290239,BBQ - WOOD SINGLE,BARBEQUE,B-RE-1901-N008,D0249,MT COOT-THA RESERVE,MOUNT COOT-THA,WOOD FIRED,1,152.958772,-27.46632318
500591.8031,6968438.7,381,100291093,BBQ - ELECTRIC SINGLE,BARBEQUE,B-RE-1809-N009,D0013,KEONG PARK,STAFFORD,MAINS POWER,1,153.0059866,-27.40741296
501103.6124,6949180.277,382,100299413,BBQ - ELECTRIC SINGLE,BARBEQUE,B-RE-2683-N004,D0927,JAMES FRENEY PARK,ACACIA RIDGE,MAINS POWER,1,153.0111815,-27.58127687
501193.2597,6969724.838,383,100301403,BBQ - ELECTRIC SINGLE,BARBEQUE,B-RE-1775-N003,D0212,ALDREN STREET PARK,STAFFORD HEIGHTS,MAINS POWER,1,153.0120695,-27.39580122
509450.6176,6972125.331,384,100403065,BBQ - GAS DOUBLE (SOLAR IGNITION),BARBEQUE,B-RE-1398-N007,D0448,NUDGEE WATERHOLE RESERVE,NUDGEE,BOTTLED GAS,2,153.095572,-27.37409713
505729.642,6966007.899,385,200488717,BBQ - ELECTRIC SINGLE,BARBEQUE,B-RE-1976-N003,D0172,ORIEL PARK,ASCOT,MAINS POWER,1,153.0579714,-27.42934645
501023.4059,6954789.373,386,200488737,BBQ - ELECTRIC SINGLE,BARBEQUE,B-RE-2389-N001,D0909,ALLAWAH STREET PARK,YEERONGPILLY,MAINS POWER,1,153.0103641,-27.5306387
503643.1041,6943533.944,387,200483995,BBQ - ELECTRIC SINGLE,BARBEQUE,B-RE-0026-N004,D1195,BILLABONG PLACE PARK,PARKINSON,MAINS POWER,1,153.036928,-27.63224644
503514.3403,6975917.429,388,200484237,BBQ - ELECTRIC DOUBLE,BARBEQUE,B-RE-2465-N009,D0804,BILL BROWN SPORTS RESERVE,FITZGIBBON,MAINS POWER,2,153.0355288,-27.33988976
503545.1506,6946867.073,389,200484135,BBQ - ELECTRIC SINGLE,BARBEQUE,B-RE-0075-N003,D2022,BLUE RANGE DRIVE PARK,ALGESTER,MAINS POWER,1,153.0359253,-27.60215589
509048.0839,6963619.065,390,200482267,BBQ - ELECTRIC DOUBLE (SOLAR 12V),BARBEQUE,B-RE-0572-N001,D1763,COLMSLIE BEACH RESERVE,MURARRIE,SOLAR POWER,2,153.0915646,-27.45089487
503109.8432,6978123.061,391,200502777,BBQ - ELECTRIC SINGLE,BARBEQUE,B-RE-2352-N011,D1394,BARRETT STREET PARK (WATER RESERVE),BRACKEN RIDGE,MAINS POWER,1,153.0314339,-27.31997792
503093.7754,6978100.217,392,200502779,BBQ - ELECTRIC SINGLE,BARBEQUE,B-RE-2352-N011,D1394,BARRETT STREET PARK (WATER RESERVE),BRACKEN RIDGE,MAINS POWER,1,153.0312715,-27.32018419
514749.1609,6960598.88,393,200500149,BBQ - ELECTRIC SINGLE,BARBEQUE,B-RE-0453-N003,D1582,BILL MCFARLANE PARK,WAKERLEY,MAINS POWER,1,153.1492948,-27.47811114
517397.2395,6964637.278,394,200501396,BBQ - ELECTRIC SINGLE,BARBEQUE,B-RE-2628-N007,D0995,WYNNUM WADING POOL PARK,WYNNUM,MAINS POWER,1,153.1760413,-27.44162132
504356.6759,6960620.135,395,200481746,BBQ - ELECTRIC DOUBLE,BARBEQUE,B-RE-1476-N008,D0366,MOWBRAY PARK,EAST BRISBANE,MAINS POWER,2,153.0440994,-27.47799231
506020.0503,6982253.089,396,200488231,BBQ - ELECTRIC DOUBLE,BARBEQUE,B-RE-1877-N002,D0274,BRIGHTON PARK,BRIGHTON,MAINS POWER,2,153.0608295,-27.28268148
496161.7827,6953444.506,397,200483285,BBQ - ELECTRIC DOUBLE,BARBEQUE,B-RE-0673-N026,D1845,ROCKS RIVERSIDE PARK,SEVENTEEN MILE ROCKS,MAINS POWER,2,152.9611258,-27.54277498
504313.0136,6973522.17,398,200489548,BBQ - ELECTRIC DOUBLE,BARBEQUE,B-RE-1989-N011,D0243,O'CALLAGHAN PARK,ZILLMERE,MAINS POWER,2,153.0436116,-27.36151221
497865.6468,6969966.198,399,100289593,BBQ - ELECTRIC SINGLE,BARBEQUE,B-RE-2430-N001,D0837,JOHN TUCKER PARK,EVERTON PARK,MAINS POWER,1,152.978412,-27.39362105
508342.2705,6959279.224,400,200483002,BBQ - ELECTRIC SINGLE,BARBEQUE,B-RE-1855-N004,D0054,LAVARACK PARK,CAMP HILL,MAINS POWER,1,153.0844518,-27.49007938
516539.6882,6964383.889,401,200470374,BBQ - WOOD SINGLE,BARBEQUE,B-RE-1815-N009,D0006,KITCHENER PARK,WYNNUM,WOOD FIRED,1,153.1673673,-27.4439196
503327.3428,6960420.097,402,200478875,BBQ - ELECTRIC SINGLE,BARBEQUE,B-RE-1557-N009,D0680,KANGAROO POINT CLIFFS PARK,KANGAROO POINT,MAINS POWER,1,153.0336807,-27.47980116
504377.5956,6960615.736,403,200480385,BBQ - ELECTRIC DOUBLE,BARBEQUE,B-RE-1476-N008,D0366,MOWBRAY PARK,EAST BRISBANE,MAINS POWER,2,153.0443111,-27.47803195
500480.0588,6970456.093,404,200483511,BBQ - ELECTRIC DOUBLE,BARBEQUE,B-RE-1667-N008,D0616,RAVEN STREET RESERVE,CHERMSIDE WEST,MAINS POWER,2,153.0048554,-27.38919982
503822.6023,6960371.858,405,200481966,BBQ - ELECTRIC DOUBLE,BARBEQUE,B-RE-1734-N001,D0097,RAYMOND PARK,KANGAROO POINT,MAINS POWER,2,153.0386941,-27.48023536
504094.1812,6957424.853,406,200481967,BBQ - ELECTRIC SINGLE,BARBEQUE,B-RE-1450-N002,D0392,THOMPSON ESTATE RESERVE,GREENSLOPES,MAINS POWER,1,153.0414531,-27.50683999
497647.9477,6966797.128,407,200472477,BBQ - ELECTRIC SINGLE,BARBEQUE,B-RE-0494-N001,D1533,BLISS STREET PARK (LOT 29),GAYTHORNE,MAINS POWER,1,152.9762039,-27.42223127
511804.1044,6955059.715,408,200505254,BBQ - ELECTRIC SINGLE,BARBEQUE,B-RE-0651-N006,D1638,CRIBB ROAD PARK,CARINDALE,MAINS POWER,1,153.1195382,-27.52814708
496814.3108,6961857.206,409,200473816,BBQ - WOOD SINGLE,BARBEQUE,B-RE-1901-N040,D0249,MT COOT-THA RESERVE,MOUNT COOT-THA,WOOD FIRED,1,152.9677569,-27.4668273
511003.042,6953222.646,410,200483805,BBQ - ELECTRIC DOUBLE,BARBEQUE,B-RE-1499-N003,D0434,BROADWATER PICNIC GROUND PARK,MANSFIELD,MAINS POWER,2,153.1114428,-27.54473868
503301.2766,6960446.904,411,200524373,BBQ - ELECTRIC SINGLE,BARBEQUE,B-RE-1557-N003,D0680,KANGAROO POINT CLIFFS PARK,KANGAROO POINT,MAINS POWER,1,153.0334168,-27.47955921
479825.4722,6953681.396,412,200526321,BBQ - ELECTRIC SINGLE,BARBEQUE,B-RE-0151-N008,D1939,MT CROSBY SPORTSGROUND,CHUWAR,MAINS POWER,1,152.7956732,-27.54049164
498648.1091,6966974.547,413,200500206,BBQ - ELECTRIC SINGLE,BARBEQUE,B-RE-1708-N001,D0132,FERGUSON PARK (ENOGGERA),ENOGGERA,MAINS POWER,1,152.9863229,-27.42063089
506299.2731,6978747.365,414,200532192,BBQ - ELECTRIC DOUBLE,BARBEQUE,B-RE-1869-N001,D0284,SANDGATE SECOND LAGOON RESERVE,SANDGATE,MAINS POWER,2,153.063669,-27.31433061
501256.876,6963335.303,415,200482886,BBQ - ELECTRIC SINGLE,BARBEQUE,B-RE-1973-N007,D0175,E. E. MCCASKIE OVAL,KELVIN GROVE,MAINS POWER,1,153.0127196,-27.45348619
500690.503,6968494.982,416,200528865,BBQ - ELECTRIC SINGLE,BARBEQUE,B-RE-1809-N001,D0013,KEONG PARK,STAFFORD,MAINS POWER,1,153.006985,-27.4069048
505072.3822,6960480.394,417,200475278,BBQ - WOOD SINGLE,BARBEQUE,B-RE-1474-N001,D0368,HEATH PARK,EAST BRISBANE,WOOD FIRED,1,153.0513445,-27.47925141
505142.5461,6961672.771,418,200541110,BBQ - ELECTRIC SINGLE,BARBEQUE,B-RE-1736-N002,D0095,NEW FARM PARK,NEW FARM,MAINS POWER,1,153.0520497,-27.46848638
518336.1447,6964096.269,419,200475653,BBQ - ELECTRIC DOUBLE,BARBEQUE,B-RE-1684-N001,D0518,GEORGE CLAYTON PARK,MANLY,MAINS POWER,2,153.1855501,-27.44649321
505153.4471,6961672.161,420,200541046,BBQ - ELECTRIC SINGLE,BARBEQUE,B-RE-1736-N002,D0095,NEW FARM PARK,NEW FARM,MAINS POWER,1,153.05216,-27.46849185
498087.7442,6968967.234,421,200543264,BBQ - ELECTRIC SINGLE,BARBEQUE,B-RE-1716-N013,D0208,TERALBA PARK,EVERTON PARK,MAINS POWER,1,152.9806568,-27.40264011
501972.2724,6975643.36,422,200547393,BBQ - ELECTRIC SINGLE,BARBEQUE,B-RE-1195-N001,D3124,CECCATO PARK,CARSELDINE,MAINS POWER,1,153.0199395,-27.34236719
502818.4025,6966881.523,423,200545546,BBQ - ELECTRIC SINGLE,BARBEQUE,B-RE-1951-N001,D0200,KOKODA PARK,GORDON PARK,MAINS POWER,1,153.028514,-27.42146846
494000.0804,6959775.89,424,100119693,BBQ - ELECTRIC DOUBLE,BARBEQUE,B-RE-2411-N001,D0858,MERRI MERRI PARK,CHAPEL HILL,MAINS POWER,2,152.9392631,-27.48560786
498229.6298,6947987.4,425,200475957,BBQ - WOOD SINGLE,BARBEQUE,B-RE-2414-N005,D0855,DURELLA STREET PARK,DURACK,WOOD FIRED,1,152.9820614,-27.59204527
507054.105,6950451.485,426,200475876,BBQ - ELECTRIC SINGLE,BARBEQUE,B-RE-1632-N001,D0559,D.M.HENDERSON PARK,MACGREGOR,MAINS POWER,1,153.0714627,-27.56978267
495694.9094,6954352.484,427,200555725,BBQ - ELECTRIC SINGLE,BARBEQUE,B-RE-2280-N008,D1381,AMAZONS PLACE PARK,JINDALEE,MAINS POWER,1,152.9564005,-27.53457645
506818.416,6967149.585,428,200561184,BBQ - ELECTRIC SINGLE,BARBEQUE,B-RE-1803-N001,D0019,THE BEIRNE PARK,HENDRA,MAINS POWER,1,153.068981,-27.41903424
505541.2207,6970855.494,429,200560422,BBQ - ELECTRIC SINGLE,BARBEQUE,B-RE-1545-N007,D0696,A.R.C.HILL PARK,VIRGINIA,MAINS POWER,1,153.0560429,-27.38558282
493269.2477,6955473.833,430,200477645,BBQ - ELECTRIC SINGLE,BARBEQUE,B-RE-1889-N003,D0261,KINGFISHER PARK,KENMORE,MAINS POWER,1,152.931841,-27.52444314
507305.6207,6973992.933,431,200501761,BBQ - ELECTRIC SINGLE,BARBEQUE,B-RE-2218-N002,D1470,NORTHUMBRIA ROAD PARK,BOONDALL,MAINS POWER,1,153.0738689,-27.35724937
505224.3366,6948966.577,432,200500497,BBQ - ELECTRIC DOUBLE,BARBEQUE,B-RE-1620-N008,D0572,LES ATKINSON PARK,SUNNYBANK,MAINS POWER,2,153.0529324,-27.58319648
507193.6502,6978341.885,433,200500841,BBQ - ELECTRIC DOUBLE,BARBEQUE,B-RE-1875-N002,D0276,SANDGATE FORESHORES PARK,SANDGATE,MAINS POWER,2,153.0727112,-27.31798695
508024.5897,6977865.277,434,200500843,BBQ - ELECTRIC DOUBLE,BARBEQUE,B-RE-1875-N024,D0276,SANDGATE FORESHORES PARK,SANDGATE,MAINS POWER,2,153.0811132,-27.32228524
508182.624,6977905.837,435,200500847,BBQ - ELECTRIC SINGLE,BARBEQUE,B-RE-1875-N012,D0276,SANDGATE FORESHORES PARK,SANDGATE,MAINS POWER,1,153.0827103,-27.32191812
510587.7966,6957523.675,436,200472853,BBQ - WOOD SINGLE,BARBEQUE,B-RE-2387-N004,D0911,ANNA SMITH OBE QUOTA PARK,CARINDALE,WOOD FIRED,1,153.1071993,-27.50591271
519078.6868,6961619.113,437,100253452,BBQ - ELECTRIC SINGLE,BARBEQUE,B-RE-2627-N004,D0996,FIG TREE POINT PARK (ROAD RESERVE),LOTA,MAINS POWER,1,153.1931031,-27.46884665
505117.6215,6948965.965,438,200471798,BBQ - ELECTRIC SINGLE,BARBEQUE,B-RE-1620-N012,D0572,LES ATKINSON PARK,SUNNYBANK,MAINS POWER,1,153.0518512,-27.58320242
504131.8563,6948964.624,439,200489001,BBQ - ELECTRIC SINGLE,BARBEQUE,B-RE-2148-N003,D1165,ROBERT MITCHELL PARK,SUNNYBANK HILLS,MAINS POWER,1,153.0418635,-27.5832179
501352.8676,6957554.62,440,200479290,BBQ - ELECTRIC SINGLE,BARBEQUE,B-RE-1469-N004,D0373,JOHN WALKER PLACE,YERONGA,MAINS POWER,1,153.0136975,-27.50567397
505313.6606,6943496.162,441,200482337,BBQ - ELECTRIC SINGLE,BARBEQUE,B-RE-2049-N001,D1234,HONEYSUCKLE WAY PARK,CALAMVALE,MAINS POWER,1,153.0538616,-27.63258199
501669.0109,6949544.043,442,200482511,BBQ - ELECTRIC SINGLE,BARBEQUE,B-RE-1629-N010,D0563,MORTIMER ROAD PARK,ACACIA RIDGE,MAINS POWER,1,153.0169094,-27.57799227
499985.0591,6964894.625,443,200478352,BBQ - ELECTRIC SINGLE,BARBEQUE,B-RE-1956-N006,D0194,CORBIE STREET PARK,ASHGROVE,MAINS POWER,1,152.9998488,-27.43940918
509620.4695,6946491.928,444,200482789,BBQ - ELECTRIC SINGLE,BARBEQUE,B-RE-0394-N001,D1551,SVOBODA PARK,KURABY,MAINS POWER,1,153.0974933,-27.60551304
479827.5513,6953796.909,445,200489303,BBQ - ELECTRIC SINGLE,BARBEQUE,B-RE-0151-N004,D1939,MT CROSBY SPORTSGROUND,CHUWAR,MAINS POWER,1,152.7956962,-27.53944883
500881.1762,6972556.626,446,200489463,BBQ - ELECTRIC SINGLE,BARBEQUE,B-RE-2520-N001,D0774,HEDLEY BARKER PARK,ASPLEY,MAINS POWER,1,153.0089108,-27.37023579
498598.6196,6964898.312,447,200482186,BBQ - ELECTRIC SINGLE,BARBEQUE,B-RE-1862-N008,D0161,DORRINGTON PARK,ASHGROVE,MAINS POWER,1,152.9858198,-27.43937517
500020.5466,6961654.373,448,100086065,BBQ - ELECTRIC DOUBLE,BARBEQUE,B-RE-0416-N002,D1723,FREW PARK,MILTON,MAINS POWER,2,153.000208,-27.46866221
500073.1247,6961556.492,449,100086068,BBQ - ELECTRIC DOUBLE,BARBEQUE,B-RE-0416-N006,D1723,FREW PARK,MILTON,MAINS POWER,2,153.0007401,-27.46954587
493389.9122,6951695.811,450,100085117,BBQ - ELECTRIC SINGLE,BARBEQUE,B-RE-1918-N003,D0340,JAMBOREE PARK,JAMBOREE HEIGHTS,MAINS POWER,1,152.9330423,-27.55855131
503864.9316,6944798.582,451,100085486,BBQ - ELECTRIC DOUBLE,BARBEQUE,B-RE-0312-N008,D2072,CALAMVALE DISTRICT PARK,CALAMVALE,MAINS POWER,2,153.0391725,-27.62082895
506105.2058,6947277.609,452,200559615,BBQ - ELECTRIC SINGLE,BARBEQUE,B-RE-2468-N002,D0801,BELDALE PARK,SUNNYBANK HILLS,MAINS POWER,1,153.0618658,-27.5984405
508632.8807,6947892.531,453,100280025,BBQ - ELECTRIC SINGLE,BARBEQUE,B-RE-2427-N004,D0840,JAGERA PARK,RUNCORN,MAINS POWER,1,153.0874751,-27.59287533
510979.8233,6953269.901,454,200517679,BBQ - ELECTRIC DOUBLE,BARBEQUE,B-RE-1499-N011,D0434,BROADWATER PICNIC GROUND PARK,MANSFIELD,MAINS POWER,2,153.1112072,-27.54431225
503106.6082,6954615.53,455,200471160,BBQ - ELECTRIC SINGLE,BARBEQUE,B-RE-1454-N006,D0388,PEGG'S PARK,MOOROOKA,MAINS POWER,1,153.0314613,-27.53220497
504061.7507,6954167.643,456,200482241,BBQ - ELECTRIC DOUBLE,BARBEQUE,B-RE-1416-N014,D0545,TOOHEY FOREST PARK,NATHAN,MAINS POWER,2,153.0411357,-27.53624593
503487.5012,6960848.592,457,200536621,BBQ - ELECTRIC DOUBLE,BARBEQUE,B-RE-1557-N012,D0680,KANGAROO POINT CLIFFS PARK,KANGAROO POINT,MAINS POWER,2,153.0353007,-27.47593231
494913.8866,6957912.274,458,100088637,BBQ - WOOD SINGLE,BARBEQUE,B-RE-2510-N001,D0784,PENHALIGON PARK,CHAPEL HILL,WOOD FIRED,1,152.9485057,-27.50243623
496674.695,6969486.652,459,200479526,BBQ - WOOD SINGLE,BARBEQUE,B-RE-1747-N004,D0151,OXFORD GROVE PARK,KEPERRA,WOOD FIRED,1,152.9663647,-27.39794805
498854.918,6971973.238,460,100092016,BBQ - ELECTRIC SINGLE,BARBEQUE,B-RE-2299-N006,D1330,MCDOWALL RESERVE,MCDOWALL,MAINS POWER,1,152.9884199,-27.37550249
493438.902,6950349.892,461,200564754,BBQ - ELECTRIC DOUBLE,BARBEQUE,B-RE-0347-N004,D2392,POOH CORNER,WACOL,MAINS POWER,2,152.9335312,-27.57070231
498201.5587,6960462.498,462,100104040,BBQ - WOOD SINGLE,BARBEQUE,B-RE-1373-N002,D0467,ANZAC PARK,MOUNT COOT-THA,WOOD FIRED,1,152.9817955,-27.47942124
493070.4851,6952380.701,463,100107330,BBQ - ELECTRIC SINGLE,BARBEQUE,B-RE-2259-N009,D1521,PHIL DENMAN PARK,JAMBOREE HEIGHTS,MAINS POWER,1,152.9298105,-27.5523666
506887.4249,6955233.659,464,100110471,BBQ - ELECTRIC SINGLE,BARBEQUE,B-RE-1846-N001,D0064,GLINDEMANN PARK,HOLLAND PARK WEST,MAINS POWER,1,153.0697469,-27.52661062
506131.886,6977914.56,465,100113855,BBQ - ELECTRIC SINGLE,BARBEQUE,B-RE-1870-N009,D0283,DEAGON SPORTSGROUND PARK,DEAGON,MAINS POWER,1,153.0619813,-27.32185009
511463.7497,6949988.58,466,200508800,BBQ - ELECTRIC DOUBLE,BARBEQUE,B-RE-1182-N005,D3293,PASK FAMILY PARK,ROCHEDALE,MAINS POWER,2,153.1161397,-27.57393153
501152.2315,6976006.404,467,100125382,BBQ - ELECTRIC SINGLE,BARBEQUE,B-RE-0217-N005,D2158,MACARANGA CRESCENT PARK,CARSELDINE,MAINS POWER,1,153.0116486,-27.33909051
504763.4719,6965318.074,468,100252224,BBQ - ELECTRIC SINGLE,BARBEQUE,B-RE-1979-N013,D0169,CROSBY PARK,ALBION,MAINS POWER,1,153.0481986,-27.43557793
496631.6158,6944891.951,469,100280621,BBQ - ELECTRIC DOUBLE,BARBEQUE,B-RE-2099-N031,D1279,THE LAKE PARKLANDS,FOREST LAKE,MAINS POWER,2,152.9658605,-27.61998736
495211.2814,6946530.305,470,100280718,BBQ - ELECTRIC DOUBLE,BARBEQUE,B-RE-2122-N005,D1213,FOREST LAKE LIONS PARK,FOREST LAKE,MAINS POWER,2,152.9514715,-27.60519234
506272.6693,6965876.46,471,100281835,BBQ - ELECTRIC DOUBLE,BARBEQUE,B-RE-1982-N008,D0166,ASCOT PARK,ASCOT,MAINS POWER,2,153.0634664,-27.43053069
497831.5546,6952395.849,472,100290095,BBQ - ELECTRIC DOUBLE,BARBEQUE,B-RE-2008-N003,D0317,NIXON PARK,OXLEY,MAINS POWER,2,152.9780357,-27.55224585
501121.2381,6946035.335,473,100290200,BBQ - ELECTRIC DOUBLE,BARBEQUE,B-RE-0386-N008,D1676,PALLARA PARK,PALLARA,MAINS POWER,2,153.011363,-27.60966885
488035.1024,6951583.275,474,100291950,BBQ - ELECTRIC DOUBLE,BARBEQUE,B-RE-1571-N003,D0665,KERRIA STREET PARK,BELLBOWRIE,MAINS POWER,2,152.878799,-27.55953054
491522.2644,6967094.531,475,100293853,BBQ - ELECTRIC DOUBLE,BARBEQUE,B-RE-1157-N003,D3672,HONEYEATER STREET PARK,UPPER KEDRON,MAINS POWER,2,152.9142315,-27.41952196
500915.0006,6970736.182,476,100298997,BBQ - ELECTRIC SINGLE,BARBEQUE,B-RE-1774-N005,D0213,MELALEUCA GREEN PARK,CHERMSIDE WEST,MAINS POWER,1,153.0092542,-27.38667093
509922.0416,6950850.782,477,100302124,BBQ - ELECTRIC DOUBLE,BARBEQUE,B-RE-1588-N012,D0725,WISHART COMMUNITY PARK,WISHART,MAINS POWER,2,153.1005135,-27.56615989
506518.9233,6970584.313,478,100308616,BBQ - ELECTRIC SINGLE,BARBEQUE,B-RE-1399-N001,D0447,NICHOLSON PLACE PARK,NORTHGATE,MAINS POWER,1,153.0659327,-27.38802674
504206.2086,6958135.981,479,100408408,BBQ - ELECTRIC DOUBLE,BARBEQUE,B-RE-1485-N010,D0357,HANLON PARK / BUR'UDA,GREENSLOPES,MAINS POWER,2,153.0425849,-27.50041963
497394.4158,6954551.788,480,200488741,BBQ - ELECTRIC SINGLE,BARBEQUE,B-RE-2018-N014,D0305,SHERWOOD ARBORETUM,SHERWOOD,MAINS POWER,1,152.9736126,-27.53278148
505099.6677,6968591.463,481,200482258,BBQ - ELECTRIC DOUBLE,BARBEQUE,B-RE-1387-N009,D0463,KALINGA PARK,CLAYFIELD,MAINS POWER,2,153.0515866,-27.4060244
505616.0238,6948758.709,482,200488822,BBQ - ELECTRIC DOUBLE,BARBEQUE,B-RE-1620-N009,D0572,LES ATKINSON PARK,SUNNYBANK,MAINS POWER,2,153.0569019,-27.58507152
500865.6567,6956024.145,483,200472066,BBQ - WOOD SINGLE,BARBEQUE,B-RE-1511-N010,D0420,SIR JOHN CHANDLER PARK,INDOOROOPILLY,WOOD FIRED,1,153.0087657,-27.51949139
504310.3394,6970352.177,484,200479196,BBQ - ELECTRIC SINGLE,BARBEQUE,B-RE-1997-N004,D0235,STUDLEY PARK,WAVELL HEIGHTS,MAINS POWER,1,153.0435958,-27.39013126
503178.8869,6978113.268,485,200502790,BBQ - ELECTRIC SINGLE,BARBEQUE,B-RE-2352-N005,D1394,BARRETT STREET PARK (WATER RESERVE),BRACKEN RIDGE,MAINS POWER,1,153.0321318,-27.32006617
504770.5846,6974485.065,486,200473666,BBQ - ELECTRIC SINGLE,BARBEQUE,B-RE-1990-N002,D0242,JOSEPH LEE PARK,ZILLMERE,MAINS POWER,1,153.0482347,-27.35281754
517453.048,6964548.034,487,200501430,BBQ - ELECTRIC DOUBLE,BARBEQUE,B-RE-2628-N008,D0995,WYNNUM WADING POOL PARK,WYNNUM,MAINS POWER,2,153.1766073,-27.4424263
504094.3137,6964338.597,488,200483067,BBQ - ELECTRIC SINGLE,BARBEQUE,B-RE-1827-N004,D0085,PERRY PARK,BOWEN HILLS,MAINS POWER,1,153.0414311,-27.44442285
507148.9131,6955605.509,489,100286005,BBQ - ELECTRIC DOUBLE,BARBEQUE,B-RE-0431-N005,D1704,RAY LYNCH PARK,HOLLAND PARK,MAINS POWER,2,153.0723927,-27.52325225
499897.4058,6963853.677,490,100289533,BBQ - ELECTRIC SINGLE,BARBEQUE,B-RE-0020-N006,D0192,WOOLCOCK PARK,RED HILL,MAINS POWER,1,152.9989618,-27.44880688
497838.1558,6962720.541,491,200483644,BBQ - ELECTRIC SINGLE,BARBEQUE,B-RE-1970-N004,D0178,BOWMAN PARK,BARDON,MAINS POWER,1,152.978121,-27.45903512
510144.216,6947659.147,492,200483656,BBQ - ELECTRIC SINGLE,BARBEQUE,B-RE-0187-N004,D1979,KINTA STREET PARK,KURABY,MAINS POWER,1,153.1027911,-27.59497178
502504.3957,6975209.187,493,200488625,BBQ - ELECTRIC SINGLE,BARBEQUE,B-RE-2470-N002,D0799,NILKERIE STREET PARK,CARSELDINE,MAINS POWER,1,153.0253201,-27.3462861
497337.3033,6953525.284,494,200504464,BBQ - ELECTRIC SINGLE,BARBEQUE,B-RE-1890-N003,D0260,FIG TREE POCKET RIVERSIDE RESERVE,FIG TREE POCKET,MAINS POWER,1,152.9730319,-27.54204854
504312.2399,6954590.462,495,100307987,BBQ - ELECTRIC SINGLE,BARBEQUE,B-RE-1523-N003,D0402,THORNYCROFT STREET PARK,TARRAGINDI,MAINS POWER,1,153.0436711,-27.53242798
519056.1935,6961772.325,496,200504893,BBQ - ELECTRIC DOUBLE,BARBEQUE,B-RE-1426-N006,D0530,LOTA CAMPING RESERVE,LOTA,MAINS POWER,2,153.192873,-27.46746378
500247.7158,6959293.158,497,200470582,BBQ - ELECTRIC DOUBLE,BARBEQUE,B-RE-1908-N020,D0346,ORLEIGH PARK,WEST END,MAINS POWER,2,153.0025077,-27.48997918
494466.1367,6961792.298,498,100117527,BBQ - GAS SINGLE,BARBEQUE,B-RE-1901-N015,D0249,MT COOT-THA RESERVE,MOUNT COOT-THA,BOTTLED GAS,1,152.9439902,-27.46740576
496456.2913,6960972.513,499,200473810,BBQ - WOOD SINGLE,BARBEQUE,B-RE-1901-N032,D0249,MT COOT-THA RESERVE,MOUNT COOT-THA,WOOD FIRED,1,152.9641307,-27.47481341
486311.8874,6953389.772,500,200518566,BBQ - ELECTRIC DOUBLE,BARBEQUE,B-RE-1655-N004,D0709,ANSTEAD BUSHLAND RESERVE,ANSTEAD,MAINS POWER,2,152.8613638,-27.54320542
511663.1124,6958914.252,501,200524048,BBQ - ELECTRIC DOUBLE,BARBEQUE,B-RE-1530-N001,D0597,PRESTON ROAD PARK,CARINA,MAINS POWER,2,153.1180733,-27.49334986
514475.5875,6962895.491,502,200524052,BBQ - ELECTRIC DOUBLE,BARBEQUE,B-RE-1676-N002,D0658,KIANAWAH ROAD PARK (NO.330),WYNNUM WEST,MAINS POWER,2,153.1464982,-27.45738036
496401.8604,6958738.708,503,200525073,BBQ - ELECTRIC SINGLE,BARBEQUE,B-RE-2463-N005,D0806,CARINYA STREET PARK,INDOOROOPILLY,MAINS POWER,1,152.9635731,-27.49497999
503370.5731,6960514.016,504,200524084,BBQ - ELECTRIC SINGLE,BARBEQUE,B-RE-1557-N014,D0680,KANGAROO POINT CLIFFS PARK,KANGAROO POINT,MAINS POWER,1,153.0341181,-27.47895315
504218.3062,6960989.438,505,200470640,BBQ - ELECTRIC SINGLE,BARBEQUE,B-RE-1832-N005,D0080,MERTHYR PARK,NEW FARM,MAINS POWER,1,153.0426975,-27.47465869
503326.0818,6960511.736,506,200524472,BBQ - ELECTRIC SINGLE,BARBEQUE,B-RE-1557-N013,D0680,KANGAROO POINT CLIFFS PARK,KANGAROO POINT,MAINS POWER,1,153.0336677,-27.47897384
501617.4135,6961537.494,507,200524473,BBQ - ELECTRIC DOUBLE,BARBEQUE,B-RE-2061-N004,D1263,KURILPA POINT PARK,SOUTH BRISBANE,MAINS POWER,2,153.0163706,-27.46971643
503335.762,6960533.395,508,200524508,BBQ - ELECTRIC SINGLE,BARBEQUE,B-RE-1557-N013,D0680,KANGAROO POINT CLIFFS PARK,KANGAROO POINT,MAINS POWER,1,153.0337657,-27.47877828
488076.1664,6950770.042,509,200525234,BBQ - WOOD SINGLE,BARBEQUE,B-RE-2541-N003,D1090,FIDDLEWOOD CRESCENT PARK,BELLBOWRIE,WOOD FIRED,1,152.8792069,-27.56687264
512412.8343,6963663.826,510,200528097,BBQ - ELECTRIC SINGLE,BARBEQUE,B-RE-1792-N005,D0031,HEMMANT RECREATION RESERVE,HEMMANT,MAINS POWER,1,153.1256146,-27.45046423
505726.9291,6965973.845,511,200474618,BBQ - ELECTRIC SINGLE,BARBEQUE,B-RE-1976-N003,D0172,ORIEL PARK,ASCOT,MAINS POWER,1,153.0579441,-27.42965389
495792.2366,6961796.77,512,200542884,BBQ - GAS DOUBLE (SOLAR IGNITION),BARBEQUE,B-RE-1901-N008,D0249,MT COOT-THA RESERVE,MOUNT COOT-THA,BOTTLED GAS,2,152.957412,-27.46737013
494647.8872,6960972.1,513,200542770,BBQ - GAS SINGLE,BARBEQUE,B-RE-1901-N042,D0249,MT COOT-THA RESERVE,MOUNT COOT-THA,BOTTLED GAS,1,152.9458261,-27.47481122
494175.5072,6961432.92,514,200542780,BBQ - WOOD SINGLE,BARBEQUE,B-RE-1901-N010,D0249,MT COOT-THA RESERVE,MOUNT COOT-THA,WOOD FIRED,1,152.9410469,-27.47064901
500230.8839,6965789.212,515,200549016,BBQ - ELECTRIC SINGLE,BARBEQUE,B-RE-0692-N001,D1821,NELSON PLACE PARK,NEWMARKET,MAINS POWER,1,153.0023361,-27.43133279
505019.0134,6948508.341,516,200554727,BBQ - ELECTRIC SINGLE,BARBEQUE,B-RE-2249-N002,D1426,SIR JAMES KILLEN RESERVE,SUNNYBANK HILLS,MAINS POWER,1,153.050854,-27.58733414
493793.2952,6954872.814,517,100266981,BBQ - ELECTRIC SINGLE,BARBEQUE,B-RE-1923-N004,D0334,JINDALEE PARK,JINDALEE,MAINS POWER,1,152.9371447,-27.52987159
498630.5806,6956137.319,518,200555688,BBQ - ELECTRIC SINGLE,BARBEQUE,B-RE-1812-N010,D0010,FAULKNER PARK,GRACEVILLE,MAINS POWER,1,152.9861333,-27.51846926
508393.3548,6971683.253,519,200554067,BBQ - ELECTRIC SINGLE,BARBEQUE,B-RE-0367-N001,D3013,PATONGA STREET PARK,BANYO,MAINS POWER,1,153.0848832,-27.37809516
497145.6284,6967914.21,520,200559978,BBQ - ELECTRIC DOUBLE,BARBEQUE,B-RE-1805-N006,D0017,FENWICK PARK,MITCHELTON,MAINS POWER,2,152.9711245,-27.41214524
492434.1652,6955930.128,521,200477678,BBQ - ELECTRIC SINGLE,BARBEQUE,B-RE-1883-N004,D0267,THE RAFTING GROUND PARK,BROOKFIELD,MAINS POWER,1,152.9233874,-27.52031935
518295.023,6961300.759,522,200477844,BBQ - WOOD SINGLE,BARBEQUE,B-RE-2498-N009,D0861,BILL LAMOND PARK,LOTA,WOOD FIRED,1,153.1851762,-27.4717315
499168.1062,6970934.301,523,200500491,BBQ - ELECTRIC SINGLE,BARBEQUE,B-RE-2640-N001,D0982,BISSET PLACE PARK,MCDOWALL,MAINS POWER,1,152.9915864,-27.38488234
517388.8288,6964634.538,524,200502375,BBQ - ELECTRIC SINGLE,BARBEQUE,B-RE-2628-N007,D0995,WYNNUM WADING POOL PARK,WYNNUM,MAINS POWER,1,153.1759562,-27.44164616
503542.3906,6975940.605,525,200501868,BBQ - ELECTRIC DOUBLE,BARBEQUE,B-RE-2465-N009,D0804,BILL BROWN SPORTS RESERVE,FITZGIBBON,MAINS POWER,2,153.0358123,-27.33968044
517218.9266,6965249.202,526,200502472,BBQ - ELECTRIC SINGLE,BARBEQUE,B-RE-2073-N003,D1246,BREAKWATER PARK,WYNNUM,MAINS POWER,1,153.1742283,-27.43609914
498983.2302,6957887.251,527,200478101,BBQ - WOOD SINGLE,BARBEQUE,B-RE-1514-N007,D0416,ROBERTSON PARK,TARINGA,WOOD FIRED,1,152.9897057,-27.50267128
518505.9671,6963471.719,528,200501072,BBQ - ELECTRIC DOUBLE,BARBEQUE,B-RE-1685-N004,D0517,BAYSIDE PARK,MANLY,MAINS POWER,2,153.1872781,-27.45212932
500188.1685,6964469.29,529,200488886,BBQ - ELECTRIC SINGLE,BARBEQUE,B-RE-1957-N001,D0193,TENNIS AVENUE PARK,ASHGROVE,MAINS POWER,1,153.0019041,-27.44324911
502531.5655,6955026.934,530,200488942,BBQ - ELECTRIC DOUBLE,BARBEQUE,B-RE-1456-N003,D0386,MOOLABIN PARK,MOOROOKA,MAINS POWER,2,153.0256368,-27.52849205
495473.9449,6964279.278,531,200508811,BBQ - ELECTRIC SINGLE,BARBEQUE,B-RE-1738-N004,D0160,WALTON BRIDGE RESERVE,THE GAP,MAINS POWER,1,152.9541998,-27.44495702
497337.0134,6954851.239,532,200470453,BBQ - WOOD SINGLE,BARBEQUE,B-RE-2018-N009,D0305,SHERWOOD ARBORETUM,SHERWOOD,WOOD FIRED,1,152.9730319,-27.53007795
503348.9265,6971679.973,533,200479350,BBQ - ELECTRIC SINGLE,BARBEQUE,B-RE-2004-N018,D0228,7TH BRIGADE PARK,CHERMSIDE,MAINS POWER,1,153.0338682,-27.37814648
504274.1927,6974143.563,534,200473656,BBQ - WOOD SINGLE,BARBEQUE,B-RE-1991-N003,D0241,VICTOR GRENNING PARK,ZILLMERE,WOOD FIRED,1,153.0432169,-27.35590232
502332.2074,6943885.319,535,100286156,BBQ - ELECTRIC SINGLE,BARBEQUE,B-RE-2788-N002,D2213,PARKINSON RECREATIONAL RESERVE,PARKINSON,MAINS POWER,1,153.0236395,-27.62907721
508459.4703,6977553.41,536,200482513,BBQ - ELECTRIC DOUBLE,BARBEQUE,B-RE-1865-N004,D0288,MOORA PARK,SHORNCLIFFE,MAINS POWER,2,153.0855111,-27.3250982
479876.8257,6953820.409,537,200489042,BBQ - ELECTRIC SINGLE,BARBEQUE,B-RE-0151-N004,D1939,MT CROSBY SPORTSGROUND,CHUWAR,MAINS POWER,1,152.7961956,-27.53923741
499594.1517,6970451.95,538,200513023,BBQ - ELECTRIC SINGLE,BARBEQUE,B-RE-0330-N001,D2554,MCLEOD COURT PARK,MCDOWALL,MAINS POWER,1,152.9958952,-27.38923725
502026.8047,6964538.847,539,200560079,BBQ - ELECTRIC SINGLE,BARBEQUE,B-RE-1730-N005,D0103,GOULD ROAD PARK,HERSTON,MAINS POWER,1,153.0205093,-27.44261964
507409.8562,6945420.557,540,100085404,BBQ - ELECTRIC SINGLE,BARBEQUE,B-RE-2556-N004,D1073,REGENCY PLACE PARK (NO.16),STRETTON,MAINS POWER,1,153.0750977,-27.61519909
504456.6341,6963904.121,541,100085933,BBQ - ELECTRIC DOUBLE,BARBEQUE,B-RE-1186-N003,D3192,WATERFRONT PARK,NEWSTEAD,MAINS POWER,2,153.0450991,-27.44834418
496426.8696,6958731.849,542,100088356,BBQ - WOOD SINGLE,BARBEQUE,B-RE-2463-N005,D0806,CARINYA STREET PARK,INDOOROOPILLY,WOOD FIRED,1,152.9638263,-27.49504197
492970.5529,6960607.465,543,100093514,BBQ - GAS DOUBLE (SOLAR IGNITION),BARBEQUE,B-RE-1901-N037,D0249,MT COOT-THA RESERVE,MOUNT COOT-THA,BOTTLED GAS,2,152.9288461,-27.47809549
500607.7704,6955491.718,544,100101228,BBQ - ELECTRIC DOUBLE,BARBEQUE,B-RE-0265-N002,D3398,KEN FLETCHER PARK,TENNYSON,MAINS POWER,2,153.0061546,-27.52429824
494282.1769,6958681.025,545,100105790,BBQ - WOOD SINGLE,BARBEQUE,B-RE-2552-N003,D1078,CICADA PARK,CHAPEL HILL,WOOD FIRED,1,152.9421136,-27.49549348
500869.3679,6956159.492,546,200472065,BBQ - WOOD SINGLE,BARBEQUE,B-RE-1511-N001,D0420,SIR JOHN CHANDLER PARK,INDOOROOPILLY,WOOD FIRED,1,153.0088032,-27.51826949
502563.3567,6976069.058,547,100107598,BBQ - ELECTRIC SINGLE,BARBEQUE,B-RE-2723-N002,D2178,KIMBERLY PARK,FITZGIBBON,MAINS POWER,1,153.0259144,-27.33852294
502657.2092,6975838.377,548,100107612,BBQ - ELECTRIC DOUBLE,BARBEQUE,B-RE-2724-N002,D2189,KURINGGAI PARK,FITZGIBBON,MAINS POWER,2,153.0268637,-27.34060538
497050.3142,6961191.927,549,100264403,BBQ - GAS DOUBLE (SOLAR IGNITION),BARBEQUE,B-RE-1901-N023,D0249,MT COOT-THA RESERVE,MOUNT COOT-THA,BOTTLED GAS,2,152.9701439,-27.47283396
503060.8678,6975245.209,550,100118391,BBQ - ELECTRIC SINGLE,BARBEQUE,B-RE-2295-N003,D1334,SILKYOAK CIRCUIT PARK,FITZGIBBON,MAINS POWER,1,153.0309461,-27.34595975
511364.2995,6951049.259,551,100125776,BBQ - ELECTRIC DOUBLE,BARBEQUE,B-RE-2716-N003,D2096,WALLABY PARADE PARK,ROCHEDALE,MAINS POWER,2,153.1151222,-27.56435673
509850.6499,6952733.608,552,100125827,BBQ - ELECTRIC DOUBLE,BARBEQUE,B-RE-0560-N004,D1777,BERKSHIRE CRESCENT PARK,WISHART,MAINS POWER,2,153.0997749,-27.54916251
498189.0814,6960448.801,553,100135931,BBQ - ELECTRIC DOUBLE,BARBEQUE,B-RE-1373-N002,D0467,ANZAC PARK,MOUNT COOT-THA,MAINS POWER,2,152.9816692,-27.47954489
486560.4535,6949396.564,554,100267499,BBQ - ELECTRIC DOUBLE,BARBEQUE,B-RE-0228-N010,D2833,MOGGILL DISTRICT SPORT PARK,MOGGILL,MAINS POWER,2,152.8638369,-27.57925797
494185.1865,6967912.377,555,100269339,BBQ - ELECTRIC DOUBLE,BARBEQUE,B-RE-1531-N009,D0631,KEPERRA PICNIC GROUND PARK,FERNY GROVE,MAINS POWER,2,152.9411759,-27.41215237
501947.0932,6977765.597,556,100271009,BBQ - ELECTRIC SINGLE,BARBEQUE,B-RE-2088-N004,D1293,BARBOUR ROAD PARK,BRACKEN RIDGE,MAINS POWER,1,153.0196815,-27.32320731
507973.1849,6977448.867,557,100273115,BBQ - ELECTRIC SINGLE,BARBEQUE,B-RE-1864-N003,D0289,HUTCHISON PARK,SHORNCLIFFE,MAINS POWER,1,153.0805963,-27.32604495
503894.2336,6969636.417,558,100275142,BBQ - ELECTRIC DOUBLE,BARBEQUE,B-RE-1999-N003,D0233,MAGGS STREET PARK,WAVELL HEIGHTS,MAINS POWER,2,153.0393895,-27.39659445
496718.6056,6949437.826,559,100278595,BBQ - ELECTRIC DOUBLE,BARBEQUE,B-RE-1628-N014,D0564,C.J.GREENFIELD COMPLEX PARK,RICHLANDS,MAINS POWER,2,152.9667545,-27.57894824
499742.5079,6960503.948,560,100279685,BBQ - ELECTRIC SINGLE,BARBEQUE,B-RE-1367-N006,D0474,MOORLANDS PARK,AUCHENFLOWER,MAINS POWER,1,152.9973936,-27.4790482
496822.2093,6961163.846,561,100264443,BBQ - GAS DOUBLE (SOLAR IGNITION),BARBEQUE,B-RE-1901-N031,D0249,MT COOT-THA RESERVE,MOUNT COOT-THA,BOTTLED GAS,2,152.967835,-27.47308696
501987.5258,6952531.995,562,200486504,BBQ - ELECTRIC SINGLE,BARBEQUE,B-RE-1414-N001,D0547,KOOKABURRA PARK,ROCKLEA,MAINS POWER,1,153.0201315,-27.55101701
498296.5146,6946350.149,563,100292153,BBQ - ELECTRIC SINGLE,BARBEQUE,B-RE-2183-N002,D1187,WALLAROO WAY COMMUNITY PARK,DOOLANDELLA,MAINS POWER,1,152.9827368,-27.60682616
489437.6304,6949858.369,564,100297937,BBQ - GAS DOUBLE (SOLAR IGNITION),BARBEQUE,B-RE-2433-N002,D0833,JOHN SPRENT RESERVE,MOGGILL,BOTTLED GAS,2,152.8929911,-27.57511439
489946.9437,6951197.734,565,100311538,BBQ - ELECTRIC SINGLE,BARBEQUE,B-RE-0047-N012,D2040,NEWCOMB PARK,RIVERHILLS,MAINS POWER,1,152.8981622,-27.56302669
500107.2112,6967320.738,566,100405321,BBQ - ELECTRIC DOUBLE,BARBEQUE,B-RE-1739-N010,D0159,GRINSTEAD PARK,ALDERLEY,MAINS POWER,2,153.0010846,-27.41750612
505305.5356,6963302.963,567,200510389,BBQ - ELECTRIC SINGLE,BARBEQUE,B-RE-0233-N006,D2672,BULIMBA RIVERSIDE PARK,BULIMBA,MAINS POWER,1,153.0536922,-27.45376839
497449.2447,6954899.982,568,200470448,BBQ - WOOD SINGLE,BARBEQUE,B-RE-2018-N008,D0305,SHERWOOD ARBORETUM,SHERWOOD,WOOD FIRED,1,152.9741686,-27.52963812
503825.4015,6958588.533,569,100253017,BBQ - ELECTRIC SINGLE,BARBEQUE,B-RE-2602-N001,D1048,FAVERSHAM STREET PARK,WOOLLOONGABBA,MAINS POWER,1,153.0387281,-27.49633514
503583.2734,6963856.077,570,200484351,BBQ - ELECTRIC SINGLE,BARBEQUE,B-RE-0183-N001,D1984,JEAYS STREET PARK,BOWEN HILLS,MAINS POWER,1,153.0362612,-27.4487805
501467.7203,6967971.848,571,200488815,BBQ - ELECTRIC DOUBLE,BARBEQUE,B-RE-1947-N006,D0204,GIBSON PARK,STAFFORD,MAINS POWER,2,153.0148477,-27.41162707
497986.1136,6943006.001,572,100294931,BBQ - ELECTRIC SINGLE,BARBEQUE,B-RE-0117-N001,D2141,HINCHINBROOK CIRCUIT PARK,FOREST LAKE,MAINS POWER,1,152.9795855,-27.63701601
503440.7708,6971903.855,573,200500317,BBQ - ELECTRIC SINGLE,BARBEQUE,B-RE-2004-N032,D0228,7TH BRIGADE PARK,CHERMSIDE,MAINS POWER,1,153.0347964,-27.37612502
501454.9077,6970583.075,574,200500208,BBQ - ELECTRIC SINGLE,BARBEQUE,B-RE-1773-N007,D0214,HUXTABLE PARK,CHERMSIDE WEST,MAINS POWER,1,153.014715,-27.38805272
495237.0855,6956940.424,575,200500292,BBQ - ELECTRIC SINGLE,BARBEQUE,B-RE-2265-N004,D1515,AKUNA STREET PARK,KENMORE,MAINS POWER,1,152.9517741,-27.5112112
500616.6583,6966003.9,576,200511492,BBQ - ELECTRIC SINGLE,BARBEQUE,B-RE-1697-N003,D0127,SEDGLEY PARK,ALDERLEY,MAINS POWER,1,153.0062392,-27.42939447
502100.5057,6979191.965,577,200481856,BBQ - ELECTRIC SINGLE,BARBEQUE,B-RE-2508-N004,D0711,HAROLD KIELLY PARK,BALD HILLS,MAINS POWER,1,153.0212298,-27.31032957
507437.7454,6949956.945,578,200488240,BBQ - ELECTRIC SINGLE,BARBEQUE,B-RE-1613-N001,D0664,YIMBUN PARK,SUNNYBANK,MAINS POWER,1,153.0753523,-27.57424525
495988.9745,6953489.387,579,200483286,BBQ - ELECTRIC DOUBLE,BARBEQUE,B-RE-0673-N003,D1845,ROCKS RIVERSIDE PARK,SEVENTEEN MILE ROCKS,MAINS POWER,2,152.9593758,-27.54236931
518141.6508,6957973.487,580,100276433,BBQ - ELECTRIC DOUBLE,BARBEQUE,B-RE-1845-N005,D0065,TINGALPA CREEK RESERVE,CHANDLER,MAINS POWER,2,153.1836736,-27.50177191
502836.9995,6943058.838,581,200478787,BBQ - ELECTRIC SINGLE,BARBEQUE,B-RE-0417-N002,D1722,ALGESTER ROAD PARK (NO.515),PARKINSON,MAINS POWER,1,153.0287581,-27.63653752
502111.5459,6956171.479,582,200471182,BBQ - ELECTRIC SINGLE,BARBEQUE,B-RE-1453-N004,D0389,YERONGA MEMORIAL PARK,YERONGA,MAINS POWER,1,153.0213814,-27.5181599
503232.7885,6980387.458,583,200479016,BBQ - ELECTRIC SINGLE,BARBEQUE,B-RE-2317-N011,D1252,TINCHI TAMBA WETLANDS RESERVE,BALD HILLS,MAINS POWER,1,153.0326706,-27.29953421
505261.8611,6974633.626,584,200471345,BBQ - ELECTRIC DOUBLE,BARBEQUE,B-RE-2069-N001,D1158,MULBEAM PARK,BOONDALL,MAINS POWER,2,153.0532012,-27.35147451
503870.0334,6943281.704,585,100295078,BBQ - ELECTRIC DOUBLE,BARBEQUE,B-RE-2331-N001,D1338,LAKEWOOD AVENUE PARK,PARKINSON,MAINS POWER,2,153.039229,-27.63452297
505701.2143,6946539.61,586,200488466,BBQ - ELECTRIC SINGLE,BARBEQUE,B-RE-2472-N003,D0797,TRANQUIL PARK,SUNNYBANK HILLS,MAINS POWER,1,153.0577756,-27.60510479
498759.2544,6959179.34,587,200488582,BBQ - ELECTRIC SINGLE,BARBEQUE,B-RE-0287-N001,D2138,WHITMORE STREET PARK,TARINGA,MAINS POWER,1,152.9874394,-27.49100618
498099.9347,6968964.887,588,200488593,BBQ - ELECTRIC SINGLE,BARBEQUE,B-RE-1716-N013,D0208,TERALBA PARK,EVERTON PARK,MAINS POWER,1,152.9807801,-27.40266132
498324.379,6961832.149,589,200488600,BBQ - ELECTRIC SINGLE,BARBEQUE,B-RE-1365-N002,D0473,RAINWORTH PARK,BARDON,MAINS POWER,1,152.9830406,-27.46705622
497734.3971,6959649.343,590,200488637,BBQ - ELECTRIC SINGLE,BARBEQUE,B-RE-1381-N002,D0483,WESTBROOK PARK,TOOWONG,MAINS POWER,1,152.9770652,-27.48676169
516236.1175,6950359.324,591,200504044,BBQ - ELECTRIC DOUBLE,BARBEQUE,B-RE-2633-N002,D0989,LEACROFT ROAD PARK,BURBANK,MAINS POWER,2,153.1644836,-27.57053568
508176.3037,6963779.725,592,200513027,BBQ - ELECTRIC DOUBLE,BARBEQUE,B-RE-1713-N002,D0035,COLMSLIE RESERVE,MORNINGSIDE,MAINS POWER,2,153.0827413,-27.44944996
494624.684,6960997.592,593,200473812,BBQ - GAS SINGLE,BARBEQUE,B-RE-1901-N042,D0249,MT COOT-THA RESERVE,MOUNT COOT-THA,BOTTLED GAS,1,152.9455914,-27.47458099
494449.4094,6962026.929,594,200473814,BBQ - WOOD SINGLE,BARBEQUE,B-RE-1901-N011,D0249,MT COOT-THA RESERVE,MOUNT COOT-THA,WOOD FIRED,1,152.943822,-27.46528744
501542.6331,6952684.301,595,200474055,BBQ - WOOD SINGLE,BARBEQUE,B-RE-1641-N002,D0548,FAUNA PARADE PARK,ROCKLEA,WOOD FIRED,1,153.015625,-27.54964259
503357.5753,6964875.254,596,200517748,BBQ - ELECTRIC SINGLE,BARBEQUE,B-RE-1520-N003,D0502,FLYNN OVAL PARK,WINDSOR,MAINS POWER,1,153.0339744,-27.43957992
498643.1405,6947373.263,597,100280745,BBQ - ELECTRIC DOUBLE,BARBEQUE,B-RE-1694-N006,D0580,D.J.SHERRINGTON PARK,INALA,MAINS POWER,2,152.9862507,-27.59759006
503358.7723,6971676.142,598,200520541,BBQ - ELECTRIC DOUBLE,BARBEQUE,B-RE-2004-N018,D0228,7TH BRIGADE PARK,CHERMSIDE,MAINS POWER,2,153.0339678,-27.37818104
518236.7804,6964107.153,599,200521592,BBQ - ELECTRIC DOUBLE,BARBEQUE,B-RE-1684-N006,D0518,GEORGE CLAYTON PARK,MANLY,MAINS POWER,2,153.1845445,-27.44639629
512799.2081,6959242.028,600,200521436,BBQ - ELECTRIC SINGLE,BARBEQUE,B-RE-0546-N003,D1865,SUMMIT STREET PARK,BELMONT,MAINS POWER,1,153.1295712,-27.49038049
508464.4893,6971997.762,601,100273508,BBQ - ELECTRIC SINGLE,BARBEQUE,B-RE-2594-N002,D1059,WILHELMINE KRUGER PARK,NUDGEE,MAINS POWER,1,153.0856004,-27.37525531
503230.5,6960200.699,602,200524096,BBQ - ELECTRIC SINGLE,BARBEQUE,B-RE-1557-N010,D0680,KANGAROO POINT CLIFFS PARK,KANGAROO POINT,MAINS POWER,1,153.0327011,-27.48178211
503605.9047,6962008.897,603,100085059,BBQ - ELECTRIC DOUBLE,BARBEQUE,B-RE-1837-N003,D0075,CAPTAIN BURKE PARK,KANGAROO POINT,MAINS POWER,2,153.0364957,-27.46545679
503361.6875,6960589.561,604,200524474,BBQ - ELECTRIC SINGLE,BARBEQUE,B-RE-1557-N013,D0680,KANGAROO POINT CLIFFS PARK,KANGAROO POINT,MAINS POWER,1,153.0340279,-27.47827116
489543.1252,6951259.714,605,200525320,BBQ - ELECTRIC DOUBLE,BARBEQUE,B-RE-1671-N011,D0663,BOOKER PLACE PARK,BELLBOWRIE,MAINS POWER,2,152.894072,-27.56246409
506032.5493,6970273.79,606,100285556,BBQ - ELECTRIC SINGLE,BARBEQUE,B-RE-0014-N002,D0456,PLAISTED PLACE PARK,NORTHGATE,MAINS POWER,1,153.061015,-27.39083241
479833.1644,6953686.224,607,200526313,BBQ - ELECTRIC SINGLE,BARBEQUE,B-RE-0151-N008,D1939,MT CROSBY SPORTSGROUND,CHUWAR,MAINS POWER,1,152.7957512,-27.54044817
496546.8063,6961930.683,608,100115346,BBQ - GAS SINGLE (SOLAR IGNITION),BARBEQUE,B-RE-1901-N002,D0249,MT COOT-THA RESERVE,MOUNT COOT-THA,BOTTLED GAS,1,152.9650496,-27.4661633
493011.3729,6960537.866,609,200542964,BBQ - GAS DOUBLE (SOLAR IGNITION),BARBEQUE,B-RE-1901-N037,D0249,MT COOT-THA RESERVE,MOUNT COOT-THA,BOTTLED GAS,2,152.9292589,-27.47872404
494228.4188,6961566.864,610,100293574,BBQ - GAS DOUBLE (SOLAR IGNITION),BARBEQUE,B-RE-1901-N010,D0249,MT COOT-THA RESERVE,MOUNT COOT-THA,BOTTLED GAS,2,152.9415831,-27.46943998
510730.796,6958424.862,611,200548902,BBQ - ELECTRIC DOUBLE,BARBEQUE,B-RE-1590-N002,D0723,CARINDALE RECREATION RESERVE,CARINDALE,MAINS POWER,2,153.1086392,-27.49777574
507308.0122,6959738.155,612,200548943,BBQ - ELECTRIC DOUBLE,BARBEQUE,B-RE-1723-N006,D0113,PERTH STREET PARK,CAMP HILL,MAINS POWER,2,153.0739788,-27.48594213
507669.2859,6950184.452,613,200475866,BBQ - ELECTRIC SINGLE,BARBEQUE,B-RE-1633-N004,D0558,WHIPBIRD PARK,MACGREGOR,MAINS POWER,1,153.0776966,-27.57219005
519097.8236,6961109.094,614,200548865,BBQ - ELECTRIC SINGLE,BARBEQUE,B-RE-2351-N004,D1398,LOTA POINT PARK (ROAD RESERVE),LOTA,MAINS POWER,1,153.1933048,-27.4734508
498155.0078,6968998.548,615,200561124,BBQ - ELECTRIC DOUBLE,BARBEQUE,B-RE-1716-N013,D0208,TERALBA PARK,EVERTON PARK,MAINS POWER,2,152.9813373,-27.40235749
514519.8783,6962889.755,616,200560176,BBQ - ELECTRIC DOUBLE,BARBEQUE,B-RE-1676-N002,D0658,KIANAWAH ROAD PARK (NO.330),WYNNUM WEST,MAINS POWER,2,153.1469465,-27.45743167
493537.6346,6952700.152,617,200565734,BBQ - ELECTRIC SINGLE,BARBEQUE,B-RE-0547-N004,D1864,LORIKEET PARK,MOUNT OMMANEY,MAINS POWER,1,152.934544,-27.54948495
499896.8465,6973324.306,618,200570289,BBQ - ELECTRIC SINGLE,BARBEQUE,B-RE-2066-N004,D1258,COOLABAH CRESCENT PARK,BRIDGEMAN DOWNS,MAINS POWER,1,152.9989569,-27.36330535
504685.2829,6968932.784,619,200500750,BBQ - ELECTRIC DOUBLE,BARBEQUE,B-RE-1987-N021,D0245,SHAW ESTATE PARK,WAVELL HEIGHTS,MAINS POWER,2,153.0473935,-27.40294441
497812.0363,6947121.292,620,200489064,BBQ - ELECTRIC SINGLE,BARBEQUE,B-RE-1692-N006,D0582,THRUSH STREET PARK,INALA,MAINS POWER,1,152.9778284,-27.59986373
503293.8924,6980382.027,621,200502693,BBQ - ELECTRIC SINGLE,BARBEQUE,B-RE-2317-N011,D1252,TINCHI TAMBA WETLANDS RESERVE,BALD HILLS,MAINS POWER,1,153.0332881,-27.2995831
510149.053,6975388.628,622,200501937,BBQ - ELECTRIC DOUBLE,BARBEQUE,B-RE-1447-N008,D0438,NUDGEE BEACH RESERVE,NUDGEE BEACH,MAINS POWER,2,153.102608,-27.34463069
504013.3882,6954150.184,623,200507072,BBQ - ELECTRIC SINGLE,BARBEQUE,B-RE-1416-N014,D0545,TOOHEY FOREST PARK,NATHAN,MAINS POWER,1,153.040646,-27.53640369
501492.9899,6961534.501,624,100290255,BBQ - ELECTRIC SINGLE,BARBEQUE,B-RE-2061-N001,D1263,KURILPA POINT PARK,SOUTH BRISBANE,MAINS POWER,1,153.0151113,-27.46974359
494211.1623,6961443.218,625,200487648,BBQ - WOOD SINGLE,BARBEQUE,B-RE-1901-N010,D0249,MT COOT-THA RESERVE,MOUNT COOT-THA,WOOD FIRED,1,152.9414079,-27.47055619
482093.1292,6952249.521,626,100286158,BBQ - ELECTRIC SINGLE,BARBEQUE,B-RE-0600-N002,D1897,ILLAWONG RESERVE,KARANA DOWNS,MAINS POWER,1,152.8186186,-27.55345024
496577.6604,6944308.556,627,200482225,BBQ - ELECTRIC SINGLE,BARBEQUE,B-RE-2099-N017,D1279,THE LAKE PARKLANDS,FOREST LAKE,MAINS POWER,1,152.965312,-27.62525399
504044.2562,6955274.244,628,100085121,BBQ - ELECTRIC SINGLE,BARBEQUE,B-RE-1524-N005,D0401,SANDY CREEK PARK,TARRAGINDI,MAINS POWER,1,153.0409548,-27.52625568
507764.2324,6957236.596,629,100085077,BBQ - ELECTRIC DOUBLE,BARBEQUE,B-RE-1853-N012,D0056,WHITES HILL RESERVE,CAMP HILL,MAINS POWER,2,153.0786132,-27.50852354
493888.3647,6969021.344,630,100091903,BBQ - ELECTRIC SINGLE,BARBEQUE,B-RE-1750-N004,D0148,FERNY GROVE PICNIC GROUND PARK,FERNY GROVE,MAINS POWER,1,152.9381788,-27.40213924
496749.6649,6953853.387,631,100093434,BBQ - ELECTRIC DOUBLE,BARBEQUE,B-RE-1891-N003,D0259,BIAMI YUMBA PARK,FIG TREE POCKET,MAINS POWER,2,152.9670811,-27.53908518
494484.6157,6961726.307,632,200542737,BBQ - GAS DOUBLE,BARBEQUE,B-RE-1901-N015,D0249,MT COOT-THA RESERVE,MOUNT COOT-THA,BOTTLED GAS,2,152.9441769,-27.4680016
499847.4578,6958444.517,633,100105970,BBQ - ELECTRIC SINGLE,BARBEQUE,B-RE-1915-N003,D0411,ST LUCIA PLAYGROUND PARK,ST LUCIA,MAINS POWER,1,152.9984557,-27.49764069
514887.6245,6959663.671,634,100107316,BBQ - ELECTRIC DOUBLE,BARBEQUE,B-RE-0459-N005,D1572,WAKERLEY PARK,WAKERLEY,MAINS POWER,2,153.1507078,-27.48655264
497140.4834,6961312.554,635,100132674,BBQ - GAS DOUBLE (SOLAR IGNITION),BARBEQUE,B-RE-1901-N023,D0249,MT COOT-THA RESERVE,MOUNT COOT-THA,BOTTLED GAS,2,152.9710569,-27.47174514
504115.0754,6946671.258,636,200474253,BBQ - WOOD SINGLE,BARBEQUE,B-RE-2420-N003,D0848,LORIKEET PARK (ALGESTER),ALGESTER,WOOD FIRED,1,153.0417013,-27.60392206
498570.5352,6946275.122,637,100117499,BBQ - ELECTRIC SINGLE,BARBEQUE,B-RE-0045-N003,D2043,BECCARIA PARK,DOOLANDELLA,MAINS POWER,1,152.9855136,-27.60750381
507703.8473,6970318.311,638,100118352,BBQ - ELECTRIC SINGLE,BARBEQUE,B-RE-1391-N002,D0457,PROGRESS PARK,NORTHGATE,MAINS POWER,1,153.0779187,-27.39042205
511043.5091,6950973.523,639,100125848,BBQ - ELECTRIC DOUBLE,BARBEQUE,B-RE-2820-N002,D2228,KOOKABURRA CIRCUIT PARK,ROCHEDALE,MAINS POWER,2,153.1118732,-27.56504312
497144.3665,6961255.192,640,100132672,BBQ - GAS DOUBLE (SOLAR IGNITION),BARBEQUE,B-RE-1901-N023,D0249,MT COOT-THA RESERVE,MOUNT COOT-THA,BOTTLED GAS,2,152.9710961,-27.47226301
509188.7522,6944459.23,641,100135572,BBQ - ELECTRIC DOUBLE,BARBEQUE,B-RE-2072-N011,D1247,KARAWATHA FOREST PARK,KARAWATHA,MAINS POWER,2,153.0931338,-27.62386681
509070.135,6944477.666,642,100135573,BBQ - ELECTRIC DOUBLE,BARBEQUE,B-RE-2072-N011,D1247,KARAWATHA FOREST PARK,KARAWATHA,MAINS POWER,2,153.0919314,-27.62370118
498444.6896,6949945.335,643,100265807,BBQ - ELECTRIC SINGLE,BARBEQUE,B-RE-0680-N003,D1837,WESTON PLACE PARK,OXLEY,MAINS POWER,1,152.984243,-27.5743696
499846.7188,6959344.506,644,100289648,BBQ - ELECTRIC SINGLE,BARBEQUE,B-RE-1908-N005,D0346,ORLEIGH PARK,WEST END,MAINS POWER,1,152.9984483,-27.48951562
493882.8613,6969018.54,645,200476345,BBQ - ELECTRIC SINGLE,BARBEQUE,B-RE-1750-N004,D0148,FERNY GROVE PICNIC GROUND PARK,FERNY GROVE,MAINS POWER,1,152.9381231,-27.40216453
510153.0138,6973366.809,646,100119695,BBQ - ELECTRIC SINGLE,BARBEQUE,B-RE-2060-N007,D1264,TUCKEROO PARK,NUDGEE BEACH,MAINS POWER,1,153.1026648,-27.36288389
504893.5483,6980116.249,647,200484402,BBQ - ELECTRIC SINGLE,BARBEQUE,B-RE-1872-N003,D0280,WAKEFIELD PARK,BRIGHTON,MAINS POWER,1,153.0494554,-27.30197781
511191.5251,6960082.717,648,100290203,BBQ - GAS DOUBLE (SOLAR IGNITION),BARBEQUE,B-RE-1408-N014,D0594,PORTER'S PADDOCK PARK,TINGALPA,BOTTLED GAS,2,153.1132883,-27.48280499
512190.7172,6958958.531,649,200470724,BBQ - WOOD SINGLE,BARBEQUE,B-RE-1604-N007,D0640,MEADOWLANDS PICNIC GROUND PARK,TINGALPA,WOOD FIRED,1,153.1234141,-27.49294549
508747.004,6953227.23,650,100290894,BBQ - ELECTRIC DOUBLE,BARBEQUE,B-RE-1500-N012,D0432,ABBEVILLE STREET PARK,UPPER MOUNT GRAVATT,MAINS POWER,2,153.0885928,-27.54471373
517107.3959,6965259.025,651,100304378,BBQ - ELECTRIC DOUBLE,BARBEQUE,B-RE-1790-N005,D0002,GREENE PARK,WYNNUM,MAINS POWER,2,153.1730996,-27.43601187
495983.5744,6951931.99,652,100310164,BBQ - ELECTRIC DOUBLE,BARBEQUE,B-RE-1928-N006,D0329,MONIER ROAD PARK (NOS.44-84),DARRA,MAINS POWER,2,152.9593159,-27.55642928
515553.7885,6964686.456,653,200482117,BBQ - ELECTRIC SINGLE,BARBEQUE,B-RE-1818-N004,D0003,PRIMROSE PARK,WYNNUM WEST,MAINS POWER,1,153.157387,-27.44119965
508626.6654,6977105.919,654,200471657,BBQ - WOOD SINGLE,BARBEQUE,B-RE-1875-N001,D0276,SANDGATE FORESHORES PARK,SANDGATE,WOOD FIRED,1,153.0872043,-27.32913718
499935.3551,6961892.422,655,200488793,BBQ - ELECTRIC SINGLE,BARBEQUE,B-RE-1376-N004,D0478,GREGORY PARK,MILTON,MAINS POWER,1,152.9993457,-27.4665131
501653.7103,6949545.925,656,200482207,BBQ - ELECTRIC SINGLE,BARBEQUE,B-RE-1629-N010,D0563,MORTIMER ROAD PARK,ACACIA RIDGE,MAINS POWER,1,153.0167544,-27.5779753
503423.2298,6971892.851,657,200482321,BBQ - ELECTRIC SINGLE,BARBEQUE,B-RE-2004-N032,D0228,7TH BRIGADE PARK,CHERMSIDE,MAINS POWER,1,153.034619,-27.37622442
509068.7963,6949531.406,658,200479261,BBQ - ELECTRIC SINGLE,BARBEQUE,B-RE-1614-N002,D0578,BOLTON STREET PARK,EIGHT MILE PLAINS,MAINS POWER,1,153.0918798,-27.57807699
514726.8072,6960623.649,659,200500152,BBQ - ELECTRIC SINGLE,BARBEQUE,B-RE-0453-N003,D1582,BILL MCFARLANE PARK,WAKERLEY,MAINS POWER,1,153.1490682,-27.47788777
506266.7166,6978221.711,660,200500168,BBQ - ELECTRIC SINGLE,BARBEQUE,B-RE-1869-N016,D0284,SANDGATE SECOND LAGOON RESERVE,SANDGATE,MAINS POWER,1,153.0633426,-27.31907647
497312.7098,6953478.646,661,200500371,BBQ - ELECTRIC SINGLE,BARBEQUE,B-RE-1890-N003,D0260,FIG TREE POCKET RIVERSIDE RESERVE,FIG TREE POCKET,MAINS POWER,1,152.9727827,-27.54246955
498788.851,6964920.61,662,200511008,BBQ - WOOD DOUBLE,BARBEQUE,B-RE-1862-N002,D0161,DORRINGTON PARK,ASHGROVE,WOOD FIRED,2,152.9877447,-27.43917405
510732.0082,6958530.391,663,200500192,BBQ - ELECTRIC SINGLE,BARBEQUE,B-RE-1590-N008,D0723,CARINDALE RECREATION RESERVE,CARINDALE,MAINS POWER,1,153.1086505,-27.49682302
503784.6343,6965707.782,664,200501184,BBQ - ELECTRIC SINGLE,BARBEQUE,B-RE-1517-N003,D0505,WINDSOR PARK,WINDSOR,MAINS POWER,1,153.0382932,-27.43206271
493466.6678,6955709.932,665,200473375,BBQ - WOOD SINGLE,BARBEQUE,B-RE-2410-N004,D0958,TWILIGHT STREET PARK,KENMORE,WOOD FIRED,1,152.9338415,-27.52231262
506866.5281,6978851.389,666,200481723,BBQ - ELECTRIC SINGLE,BARBEQUE,B-RE-1875-N014,D0276,SANDGATE FORESHORES PARK,SANDGATE,MAINS POWER,1,153.0694019,-27.31338874
500466.1381,6966091.432,667,200481736,BBQ - ELECTRIC SINGLE,BARBEQUE,B-RE-1697-N007,D0127,SEDGLEY PARK,ALDERLEY,MAINS POWER,1,153.0047163,-27.42860429
498482.6745,6971068.648,668,200489554,BBQ - ELECTRIC SINGLE,BARBEQUE,B-RE-2579-N001,D1019,GUM NUT NOOK,MCDOWALL,MAINS POWER,1,152.9846543,-27.38366885
502021.1724,6950482.149,669,200478643,BBQ - WOOD SINGLE,BARBEQUE,B-RE-2164-N001,D1145,KERRY ROAD PARK,ARCHERFIELD,WOOD FIRED,1,153.0204758,-27.56952271
505415.6883,6968099,670,200480364,BBQ - ELECTRIC DOUBLE,BARBEQUE,B-RE-1387-N018,D0463,KALINGA PARK,CLAYFIELD,MAINS POWER,2,153.0547856,-27.41046917
508708.7886,6952309.222,671,200471312,BBQ - ELECTRIC SINGLE,BARBEQUE,B-RE-1552-N002,D0686,BRUSHBOX PARK,UPPER MOUNT GRAVATT,MAINS POWER,1,153.0882123,-27.55300164
500489.7755,6970458.87,672,200483478,BBQ - ELECTRIC DOUBLE,BARBEQUE,B-RE-1667-N008,D0616,RAVEN STREET RESERVE,CHERMSIDE WEST,MAINS POWER,2,153.0049537,-27.38917475
494715.5435,6944104.891,673,100282043,BBQ - ELECTRIC DOUBLE,BARBEQUE,B-RE-0062-N001,D2035,JUBILEE AVENUE PARK,FOREST LAKE,MAINS POWER,2,152.9464371,-27.62708663
510511.5692,6951964.855,674,200488383,BBQ - ELECTRIC SINGLE,BARBEQUE,B-RE-1489-N001,D0436,COORA STREET PARK,WISHART,MAINS POWER,1,153.1064759,-27.55609774
504042.6247,6956114.952,675,200483690,BBQ - ELECTRIC SINGLE,BARBEQUE,B-RE-1527-N005,D0398,SHAFTESBURY STREET PARK,TARRAGINDI,MAINS POWER,1,153.0409355,-27.51866584
506395.8024,6981871.757,676,200471641,BBQ - ELECTRIC SINGLE,BARBEQUE,B-RE-1876-N007,D0275,DECKER PARK,BRIGHTON,MAINS POWER,1,153.0646283,-27.28612253
506417.8673,6981913.139,677,100124140,BBQ - ELECTRIC DOUBLE,BARBEQUE,B-RE-1876-N004,D0275,DECKER PARK,BRIGHTON,MAINS POWER,2,153.0648511,-27.28574882
502408.277,6948595.133,678,200483937,BBQ - ELECTRIC DOUBLE,BARBEQUE,B-RE-1622-N011,D0570,C.A.O SULLIVAN PARK,ACACIA RIDGE,MAINS POWER,2,153.0244011,-27.58655777
486277.8332,6953389.354,679,200488668,BBQ - ELECTRIC DOUBLE,BARBEQUE,B-RE-1655-N004,D0709,ANSTEAD BUSHLAND RESERVE,ANSTEAD,MAINS POWER,2,152.8610189,-27.54320885
506161.6437,6946878,680,200488676,BBQ - ELECTRIC SINGLE,BARBEQUE,B-RE-2457-N002,D0753,JACK PYLE PARK,SUNNYBANK HILLS,MAINS POWER,1,153.0624398,-27.60204785
517429.7955,6952641.383,681,200504054,BBQ - ELECTRIC DOUBLE,BARBEQUE,B-RE-2464-N001,D0805,J.C.TROTTER MEMORIAL PARK,BURBANK,MAINS POWER,2,153.1765434,-27.54991879
509092.2343,6962315.235,682,100286159,BBQ - ELECTRIC SINGLE,BARBEQUE,B-RE-0039-N001,D2047,WYANDRA CRESCENT PARK,MURARRIE,MAINS POWER,1,153.0920211,-27.46266555
506901.6892,6978903.267,683,100271013,BBQ - ELECTRIC SINGLE,BARBEQUE,B-RE-1875-N014,D0276,SANDGATE FORESHORES PARK,SANDGATE,MAINS POWER,1,153.0697569,-27.3129202
504170.5636,6959300.749,684,200517728,BBQ - ELECTRIC SINGLE,BARBEQUE,B-RE-1482-N005,D0360,WOOLLOONGABBA ROTARY PARK,EAST BRISBANE,MAINS POWER,1,153.04222,-27.48990427
504508.721,6971615.507,685,200520740,BBQ - ELECTRIC DOUBLE,BARBEQUE,B-RE-2004-N036,D0228,7TH BRIGADE PARK,CHERMSIDE,MAINS POWER,2,153.0455976,-27.37872515
497017.7308,6943768.59,686,100294933,BBQ - ELECTRIC SINGLE,BARBEQUE,B-RE-0139-N001,D1953,ST ANDREWS AVENUE PARK,FOREST LAKE,MAINS POWER,1,152.9697711,-27.63012973
489497.2895,6951355.459,687,200525328,BBQ - WOOD SINGLE,BARBEQUE,B-RE-1671-N010,D0663,BOOKER PLACE PARK,BELLBOWRIE,WOOD FIRED,1,152.8936085,-27.56159936
503295.3562,6960431.735,688,200524374,BBQ - ELECTRIC SINGLE,BARBEQUE,B-RE-1557-N003,D0680,KANGAROO POINT CLIFFS PARK,KANGAROO POINT,MAINS POWER,1,153.0333569,-27.47969617
503390.6569,6960560.367,689,200527463,BBQ - ELECTRIC SINGLE,BARBEQUE,B-RE-1557-N014,D0680,KANGAROO POINT CLIFFS PARK,KANGAROO POINT,MAINS POWER,1,153.0343212,-27.47853465
495978.3943,6953585.296,690,200527727,BBQ - ELECTRIC DOUBLE,BARBEQUE,B-RE-0673-N023,D1845,ROCKS RIVERSIDE PARK,SEVENTEEN MILE ROCKS,MAINS POWER,2,152.9592689,-27.54150341
492432.5175,6968158.005,691,200526973,BBQ - ELECTRIC DOUBLE,BARBEQUE,B-RE-1748-N003,D0150,UPPER KEDRON RECREATION RESERVE,UPPER KEDRON,MAINS POWER,2,152.923447,-27.40992622
510139.5703,6973546.809,692,200482013,BBQ - ELECTRIC SINGLE,BARBEQUE,B-RE-2060-N011,D1264,TUCKEROO PARK,NUDGEE BEACH,MAINS POWER,1,153.1025274,-27.36125893
503197.5976,6972661.337,693,200475454,BBQ - WOOD SINGLE,BARBEQUE,B-RE-2238-N003,D1437,RAINBOW LORIKEET PARK,ASPLEY,WOOD FIRED,1,153.0323352,-27.36928698
494346.8146,6962031.438,694,200542712,BBQ - WOOD SINGLE,BARBEQUE,B-RE-1901-N011,D0249,MT COOT-THA RESERVE,MOUNT COOT-THA,WOOD FIRED,1,152.9427836,-27.46524631
494406.1281,6961766.751,695,200542724,BBQ - GAS DOUBLE,BARBEQUE,B-RE-1901-N015,D0249,MT COOT-THA RESERVE,MOUNT COOT-THA,BOTTLED GAS,2,152.9433827,-27.46763615
502945.7786,6971710.579,696,100119618,BBQ - ELECTRIC SINGLE,BARBEQUE,B-RE-1761-N001,D0227,MARCHANT PARK,ASPLEY,MAINS POWER,1,153.029791,-27.37787109
498779.2657,6942991.853,697,200551895,BBQ - ELECTRIC SINGLE,BARBEQUE,B-RE-1129-N003,D3054,HEATHWOOD PARK,HEATHWOOD,MAINS POWER,1,152.9876256,-27.63714468
501806.5604,6942566.189,698,200557064,BBQ - ELECTRIC SINGLE,BARBEQUE,B-RE-0111-N001,D2147,WATHEROO PLACE PARK,PARKINSON,MAINS POWER,1,153.0183135,-27.64098682
505125.5259,6961389.204,699,200560668,BBQ - ELECTRIC DOUBLE,BARBEQUE,B-RE-1736-N017,D0095,NEW FARM PARK,NEW FARM,MAINS POWER,2,153.0518786,-27.47104648
498123.5906,6953022.118,700,200560021,BBQ - ELECTRIC SINGLE,BARBEQUE,B-RE-2009-N006,D0316,DUNLOP PARK,CORINDA,MAINS POWER,1,152.9809947,-27.54659239
501886.6563,6957612.598,701,200560032,BBQ - ELECTRIC SINGLE,BARBEQUE,B-RE-1469-N001,D0373,JOHN WALKER PLACE,YERONGA,MAINS POWER,1,153.0191019,-27.5051499
505088.606,6964446.465,702,200476925,BBQ - ELECTRIC DOUBLE,BARBEQUE,B-RE-1786-N003,D0039,VIC LUCAS PARK,BULIMBA,MAINS POWER,2,153.0514921,-27.44344566
498199.3773,6943317.644,703,100285554,BBQ - ELECTRIC SINGLE,BARBEQUE,B-RE-0242-N001,D2612,EUNGELLA TERRACE PARK,FOREST LAKE,MAINS POWER,1,152.9817478,-27.63420287
497922.6297,6943368.059,704,100285555,BBQ - ELECTRIC DOUBLE,BARBEQUE,B-RE-0242-N003,D2612,EUNGELLA TERRACE PARK,FOREST LAKE,MAINS POWER,2,152.9789426,-27.63374733
505298.5821,6961529.605,705,200570337,BBQ - ELECTRIC DOUBLE,BARBEQUE,B-RE-1736-N018,D0095,NEW FARM PARK,NEW FARM,MAINS POWER,2,153.0536296,-27.46977829
505311.825,6961545.724,706,200570338,BBQ - ELECTRIC DOUBLE,BARBEQUE,B-RE-1736-N018,D0095,NEW FARM PARK,NEW FARM,MAINS POWER,2,153.0537636,-27.46963271
502063.9766,6955282.332,707,200471109,BBQ - ELECTRIC DOUBLE,BARBEQUE,B-RE-1459-N001,D0383,MOOROOKA LIONS BICENT. PICNIC GRND PARK,YEERONGPILLY,MAINS POWER,2,153.0209012,-27.52618713
504474.4843,6971676.435,708,200477533,BBQ - ELECTRIC DOUBLE,BARBEQUE,B-RE-2004-N028,D0228,7TH BRIGADE PARK,CHERMSIDE,MAINS POWER,2,153.0452511,-27.3781752
501433.9426,6948630.226,709,200477825,BBQ - ELECTRIC SINGLE,BARBEQUE,B-RE-1623-N002,D0569,NORMA CROKER PARK,ACACIA RIDGE,MAINS POWER,1,153.014529,-27.58624234
497745.529,6947124.892,710,200501824,BBQ - ELECTRIC SINGLE,BARBEQUE,B-RE-1692-N006,D0582,THRUSH STREET PARK,INALA,MAINS POWER,1,152.9771545,-27.59983111
508327.5694,6977754.438,711,200500846,BBQ - ELECTRIC DOUBLE,BARBEQUE,B-RE-1875-N026,D0276,SANDGATE FORESHORES PARK,SANDGATE,MAINS POWER,2,153.0841765,-27.3232841
518467.7315,6963504.838,712,200501074,BBQ - ELECTRIC DOUBLE,BARBEQUE,B-RE-1685-N004,D0517,BAYSIDE PARK,MANLY,MAINS POWER,2,153.1868907,-27.45183085
510385.3215,6957580.159,713,200488923,BBQ - ELECTRIC SINGLE,BARBEQUE,B-RE-2413-N002,D0856,SURBITON COURT PARK,CARINDALE,MAINS POWER,1,153.1051488,-27.50540435
497376.1399,6954622.966,714,200470452,BBQ - ELECTRIC SINGLE,BARBEQUE,B-RE-2018-N015,D0305,SHERWOOD ARBORETUM,SHERWOOD,MAINS POWER,1,152.9734276,-27.53213886
502020.9186,6979575.382,715,200479547,BBQ - ELECTRIC SINGLE,BARBEQUE,B-RE-2555-N001,D1075,GUS DAVIES PARK,BALD HILLS,MAINS POWER,1,153.0204248,-27.30686813
497995.7764,6959200.385,716,200472101,BBQ - WOOD SINGLE,BARBEQUE,B-RE-1507-N005,D0424,TARINGA PLAYGROUND PARK,TARINGA,WOOD FIRED,1,152.9797104,-27.49081527
503176.3028,6978065.022,717,200548781,BBQ - ELECTRIC SINGLE,BARBEQUE,B-RE-2352-N005,D1394,BARRETT STREET PARK (WATER RESERVE),BRACKEN RIDGE,MAINS POWER,1,153.0321058,-27.32050175
496082.2903,6953870.321,718,200477074,BBQ - ELECTRIC DOUBLE,BARBEQUE,B-RE-0673-N028,D1845,ROCKS RIVERSIDE PARK,SEVENTEEN MILE ROCKS,MAINS POWER,2,152.9603221,-27.53893054
502360.067,6965731.768,719,200570360,BBQ - ELECTRIC SINGLE,BARBEQUE,B-RE-1437-N002,D0497,HINKLER PARK,WINDSOR,MAINS POWER,1,153.0238793,-27.43184938
499917.911,6963799.437,720,100289534,BBQ - ELECTRIC SINGLE,BARBEQUE,B-RE-0020-N006,D0192,WOOLCOCK PARK,RED HILL,MAINS POWER,1,152.9991693,-27.44929656
499213.2818,6959140.634,721,200560756,BBQ - ELECTRIC DOUBLE,BARBEQUE,B-RE-1378-N003,D0480,PERRIN PARK,TOOWONG,MAINS POWER,2,152.9920357,-27.49135596
503488.9154,6960884.378,722,200536620,BBQ - ELECTRIC DOUBLE,BARBEQUE,B-RE-1557-N012,D0680,KANGAROO POINT CLIFFS PARK,KANGAROO POINT,MAINS POWER,2,153.0353149,-27.47560924
515669.6125,6960129.805,723,200529050,BBQ - ELECTRIC DOUBLE,BARBEQUE,B-RE-0235-N002,D2634,TORRENS CRESCENT PARK,WAKERLEY,MAINS POWER,2,153.1586179,-27.48233562
493541.7785,6964920.658,724,100101839,BBQ - ELECTRIC SINGLE,BARBEQUE,B-RE-1607-N009,D0637,WITTONGA PARK,THE GAP,MAINS POWER,1,152.9346512,-27.43915883
500124.9081,6958979.206,725,100102093,BBQ - ELECTRIC DOUBLE,BARBEQUE,B-RE-1936-N002,D0408,GUYATT PARK,ST LUCIA,MAINS POWER,2,153.0012645,-27.49281355
505223.9683,6961448.709,726,100106802,BBQ - ELECTRIC DOUBLE,BARBEQUE,B-RE-1736-N025,D0095,NEW FARM PARK,NEW FARM,MAINS POWER,2,153.0528747,-27.4705089
495056.7284,6950232.015,727,100118993,BBQ - ELECTRIC SINGLE,BARBEQUE,B-RE-1929-N003,D0327,DUCIE STREET PARK,DARRA,MAINS POWER,1,152.9499205,-27.57177336
503068.4731,6955577.885,728,100119600,BBQ - ELECTRIC SINGLE,BARBEQUE,B-RE-1452-N005,D0390,CLIFTON HILL PEACE PARK,ANNERLEY,MAINS POWER,1,153.0310726,-27.523517
502634.3622,6976286.427,729,100274184,BBQ - ELECTRIC DOUBLE,BARBEQUE,B-RE-2850-N003,D2243,FITZGIBBON BUSHLANDS,FITZGIBBON,MAINS POWER,2,153.0266317,-27.33656036
506795.1853,6964966.728,730,100290210,BBQ - ELECTRIC DOUBLE,BARBEQUE,B-RE-1542-N005,D0699,HERCULES STREET PARK,HAMILTON,MAINS POWER,2,153.0687582,-27.43874127
499379.246,6955557.969,731,100290237,BBQ - WOOD SINGLE,BARBEQUE,B-RE-2399-N005,D0824,GRACEVILLE RIVERSIDE PARKLANDS,GRACEVILLE,WOOD FIRED,1,152.993714,-27.52370013
504722.6044,6974451.897,732,200479679,BBQ - WOOD DOUBLE,BARBEQUE,B-RE-1990-N004,D0242,JOSEPH LEE PARK,ZILLMERE,WOOD FIRED,2,153.0477497,-27.35311715
506674.4694,6968456.41,733,100290583,BBQ - ELECTRIC SINGLE,BARBEQUE,B-RE-1386-N020,D0464,ALBERT BISHOP PARK,NUNDAH,MAINS POWER,1,153.0675176,-27.40723686
506293.9314,6964845.993,734,100300535,BBQ - ELECTRIC DOUBLE,BARBEQUE,B-RE-1980-N003,D0168,HAMILTON PARK,HAMILTON,MAINS POWER,2,153.0636868,-27.43983368
507405.5961,6945237.793,735,100307975,BBQ - ELECTRIC DOUBLE,BARBEQUE,B-RE-2556-N005,D1073,REGENCY PLACE PARK (NO.16),STRETTON,MAINS POWER,2,153.0750556,-27.61684906
